ID,Business Name,Trade Name,Industry,License Number,Full Address,Address Building,Address Street Name,City,State,ZIP Code,Borough,Address Location,Phone Number
1,GEM FINANCIAL SERVICES INC,GEM PAWNBROKERS,PAWNBROKER,2902,"608 8 AVENUE, NEW YORK, NY 10018",608,8 AVENUE,NEW YORK,NY,10018,Manhattan, ,(718) 237-1166
167,GEM FINANCIAL SERVICES INC,GEM PAWNBROKERS,PAWNBROKER,390712,"367 E FORDHAM RD, BRONX, NY 10458",367,E FORDHAM RD,BRONX,NY,10458,Bronx, ,(718) 237-1166
494,GRAMERCY PAWNBROKERS INC, ,PAWNBROKER,629547,"318-320 3 AVENUE, NEW YORK, NY 10010",318-320,3 AVENUE,NEW YORK,NY,10010,Manhattan, ,(212) 477-2135
922,N SIMPSON INC, ,PAWNBROKER,737621,"149 CANAL STREET, NEW YORK, NY 10002",149,CANAL STREET,NEW YORK,NY,10002,Manhattan, ,(212) 925-5070
1218,PARADISE PAWNBROKERS INC, ,PAWNBROKER,766634,"2384 GRAND CONCOURSE, BRONX, NY 10458",2384,GRAND CONCOURSE,BRONX,NY,10458,Bronx, ,(718) 295-8900
1959,N Y PAWNBROKERS INC, ,PAWNBROKER,803727,"301 EAST  149 STREET, BRONX, NY 10451",301,EAST  149 STREET,BRONX,NY,10451,Bronx, ,(718) 665-0252
2085,GEM FINANCIAL SERVICES INC,GEM PAWNBROKERS,PAWNBROKER,812475,"378 SCHERMERHORN STREET, BROOKLYN, NY 11217",378,SCHERMERHORN STREET,BROOKLYN,NY,11217,Brooklyn, ,(718) 237-1166
2745,GEM FINANCIAL SERVICES INC,GEM PAWNBROKERS,PAWNBROKER,831194,"216-15 JAMAICA AVENUE, QUEENS VILLAGE, NY 11428",216-15,JAMAICA AVENUE,QUEENS VILLAGE,NY,11428,Queens, ,(718) 237-1166
2904,LINCOLN SQUARE PAWNBROKERS INC, ,PAWNBROKER,835711,"724 AMSTERDAM AVENUE, NEW YORK, NY 10025",724,AMSTERDAM AVENUE,NEW YORK,NY,10025,Manhattan, ,(212) 865-9010
3596,SYLVESTERS JEWELERS INC, ,PAWNBROKER,850270,"86 BOWERY, NEW YORK, NY 10013",86,BOWERY,NEW YORK,NY,10013,Manhattan, ,(212) 966-2355
5364,GEM FINANCIAL SERVICES INC,GEM PAWNBROKERS,PAWNBROKER,898475,"1535 FLATBUSH AVENUE, BROOKLYN, NY 11210",1535,FLATBUSH AVENUE,BROOKLYN,NY,11210,Brooklyn, ,(718) 237-1166
5653,"LIRANZO, DANIEL",KELLY JEWELRY,PAWNBROKER,903938,"945 EAST  163 STREET, BRONX, NY 10459",945,EAST  163 STREET,BRONX,NY,10459,Bronx, ,(718) 328-2676
6091,PRESTAMOS PEPE INC,PRESTAMOS PEPE,PAWNBROKER,913281,"1324 ST NICHOLAS AVENUE, NEW YORK, NY 10033",1324,ST NICHOLAS AVENUE,NEW YORK,NY,10033,Manhattan, ,(212) 740-0850
6234,"GUERRERO, LUISA M",ANGIE GOLD EXCHANGE,PAWNBROKER,915903,"2273 MORRIS AVENUE, BRONX, NY 10453",2273,MORRIS AVENUE,BRONX,NY,10453,Bronx, ,(718) 562-2087
6607,GEM FINANCIAL SERVICES INC,GEM PAWNBROKERS,PAWNBROKER,921008,"90-26 SUTPHIN BOULEVARD, JAMAICA, NY 11435",90-26,SUTPHIN BOULEVARD,JAMAICA,NY,11435,Queens, ,(718) 237-1166
6805,PRESTAMOS PEPE INC, ,PAWNBROKER,922990,"4162 BROADWAY, NEW YORK, NY 10033",4162,BROADWAY,NEW YORK,NY,10033,Manhattan, ,(212) 475-6693
6806,PRESTAMOS PEPE INC, ,PAWNBROKER,922991,"1403 ST NICHOLAS AVENUE, NEW YORK, NY 10033",1403,ST NICHOLAS AVENUE,NEW YORK,NY,10033,Manhattan, ,(212) 568-0600
7170,METROPOLITAN PAWN BROKERS CORP, ,PAWNBROKER,926799,"92-16 JAMAICA AVENUE, WOODHAVEN, NY 11421",92-16,JAMAICA AVENUE,WOODHAVEN,NY,11421,Queens, ,(718) 441-0906
7378,"GEM FINANCIAL SERVICES, INC.",GEM PAWNBROKERS,PAWNBROKER,930815,"754 ALLERTON AVENUE, BRONX, NY 10467",754,ALLERTON AVENUE,BRONX,NY,10467,Bronx, ,(718) 237-1166
7926,C & H PAWNBROKER CORP, ,PAWNBROKER,952513,"181 KNICKERBOCKER AVENUE, BROOKLYN, NY 11237",181,KNICKERBOCKER AVENUE,BROOKLYN,NY,11237,Brooklyn, ,(718) 628-6865
8593,STATE PAWNBROKERS INC, ,PAWNBROKER,966851,"1313 FULTON STREET, BROOKLYN, NY 11216",1313,FULTON STREET,BROOKLYN,NY,11216,Brooklyn, ,(718) 789-6713
8774,N Y PAWNBROKERS I INC, ,PAWNBROKER,972023,"177 RIVINGTON STREET, NEW YORK, NY 10002",177,RIVINGTON STREET,NEW YORK,NY,10002,Manhattan, ,(212) 228-7177
8811,LEE'S GOLD CASTLE LTD, ,PAWNBROKER,973134,"2404 GRAND CONCOURSE, NEW YORK, NY 10458",2404,GRAND CONCOURSE,NEW YORK,NY,10458,Bronx, ,(718) 364-0495
9434,"TREMONT AVE. PAWNBROKERS, INC.", ,PAWNBROKER,983943,"701 EAST TREMONT AVENUE, BRONX, NY 10457",701,EAST TREMONT AVENUE,BRONX,NY,10457,Bronx, ,(718) 299-7931
9442,GEM FINANCIAL SERVICES INC.,GEM PAWNBROKERS,PAWNBROKER,984077,"353 WEST  125 STREET, NEW YORK, NY 10027",353,WEST  125 STREET,NEW YORK,NY,10027,Manhattan, ,(212) 665-9400
9457,D J F PAWN BROKERS INC, ,PAWNBROKER,984611,"300 EAST FORDHAM ROAD, BRONX, NY 10458",300,EAST FORDHAM ROAD,BRONX,NY,10458,Bronx, ,(718) 933-8848
9605,"SANTIAGO, PEDRO J.",FAMILY PAWNSHOP,PAWNBROKER,989161,"221 ST ANN'S AVENUE, BRONX, NY 10454",221,ST ANN'S AVENUE,BRONX,NY,10454,Bronx, ,(718) 401-1091
9676,"ELLMAN, ANTONIETA",FORDHAM PAWNBROKERS,PAWNBROKER,990974,"30 WEST FORDHAM ROAD, BRONX, NY 10468",30,WEST FORDHAM ROAD,BRONX,NY,10468,Bronx, ,(718) 584-5908
10431,THE BARLIAN CORP, ,PAWNBROKER,1004738,"37-39 103 STREET, CORONA, NY 11368",37-39,103 STREET,CORONA,NY,11368,Queens, ,(718) 429-3632
11798,BARGAIN PAWNSHOP INC, ,PAWNBROKER,1032599,"510 FULTON STREET, BROOLYN, NY 11201",510,FULTON STREET,BROOLYN,NY,11201,Brooklyn, ,(718) 834-1799
13634,"48TH ST. PAWNBROKERS, INC.", ,PAWNBROKER,1063947,"32 WEST   48 STREET, NEW YORK, NY 10036",32,WEST   48 STREET,NEW YORK,NY,10036,Manhattan, ,(212) 354-7705
13755,KING PAWN BROKERS INC., ,PAWNBROKER,1065483,"414 EAST  149 STREET, BRONX, NY 10455",414,EAST  149 STREET,BRONX,NY,10455,Bronx, ,(718) 402-6642
14172,"FERMIN, JULIA A",P & J JEWLRY,PAWNBROKER,1070186,"3 WEST  183 STREET, BRONX, NY 10453",3,WEST  183 STREET,BRONX,NY,10453,Bronx, ,(718) 733-1826
14402,E Z PAWN CORP, ,PAWNBROKER,1072679,"1878 LEXINGTON AVENUE, NEW YORK, NY 10035",1878,LEXINGTON AVENUE,NEW YORK,NY,10035,Manhattan,STORE #3,(212) 828-0200
15118,GEM FINANCIAL SERVICES INC,GEM PAWNBROKERS,PAWNBROKER,1087334,"1912 FLATBUSH AVENUE, BROOKLYN, NY 11210",1912,FLATBUSH AVENUE,BROOKLYN,NY,11210,Brooklyn, ,(718) 338-7296
16449,"CABRERA, RAMON R",R. C. PAWN BROKERS,PAWNBROKER,1107952,"866 EAST  180 STREET, BRONX, NY 10460",866,EAST  180 STREET,BRONX,NY,10460,Bronx, ,(999) 999-9999
16461,G.W. HTS PAWN BROKER INC, ,PAWNBROKER,1108115,"700 WEST  178 STREET, NEW YORK, NY 10033",700,WEST  178 STREET,NEW YORK,NY,10033,Manhattan, ,(212) 795-7666
16464,A1 PAWN BROKERS INC, ,PAWNBROKER,1108177,"2131 CONEY ISLAND AVENUE, BROOKLYN, NY 11223",2131,CONEY ISLAND AVENUE,BROOKLYN,NY,11223,Brooklyn, ,(718) 627-2622
17367,"N.Y. PAWN BROKERS 2, INC", ,PAWNBROKER,1125229,"303 EAST  149 STREET, BRONX, NY 10451",303,EAST  149 STREET,BRONX,NY,10451,Bronx, ,(718) 665-0252
18004,E Z PAWN CORP, ,PAWNBROKER,1132439,"95-54 ROOSEVELT AVENUE, QUEENS, NY 11372",95-54,ROOSEVELT AVENUE,QUEENS,NY,11372,Queens, ,(718) 565-8600
18186,PAWN IT HERE INC, ,PAWNBROKER,1134626,"9035 SUTPHIN BLVD, JAMAICA, NY 11435",9035,SUTPHIN BLVD,JAMAICA,NY,11435,Queens, ,(718) 558-4100
18367,MODELL COLLATERAL LOANS INC, ,PAWNBROKER,1137112,"150 ATLANTIC AVENUE, BROOKLYN, NY 11201",150,ATLANTIC AVENUE,BROOKLYN,NY,11201,Brooklyn, ,(718) 834-0077
18368,MODELL COLLATERAL LOANS INC, ,PAWNBROKER,1137123,"139 EAST   23 STREET, NEW YORK, NY 10010",139,EAST   23 STREET,NEW YORK,NY,10010,Manhattan, ,(212) 982-1818
18430,CONCOURSE PAWN SHOP INC, ,PAWNBROKER,1138300,"2558 GRAND CONCOURSE, BRONX, NY 10458",2558,GRAND CONCOURSE,BRONX,NY,10458,Bronx, ,(718) 933-9822
18720,BRESS HOLDINGS INC,ROCKAWAY BEACH PAWNBROKERS,PAWNBROKER,1143307,"87-14A ROCKAWAY BEACH BOULEVARD, ROCKAWAY BEACH, NY 11693",87-14A,ROCKAWAY BEACH BOULEVARD,ROCKAWAY BEACH,NY,11693,Queens, ,(718) 318-2367
18806,QUEENS PAWNBROKERS INC., ,PAWNBROKER,1144751,"94-12 ROOSEVELT AVENUE, JACKSON HEIGHTS, NY 11372",94-12,ROOSEVELT AVENUE,JACKSON HEIGHTS,NY,11372,Queens, ,(718) 505-4301
18932,MR. PAWNBROKER INC., ,PAWNBROKER,1146590,"1016 LONGWOOD AVENUE, BRONX, NY 10459",1016,LONGWOOD AVENUE,BRONX,NY,10459,Bronx, ,(718) 620-7269
19013,"IZAGUIRRE, BARBARA, E",IZAGUIRRE JEWELRY REPAIRS,PAWNBROKER,1147452,"14 WEST BURNSIDE AVENUE, BRONX, NY 10453",14,WEST BURNSIDE AVENUE,BRONX,NY,10453,Bronx, ,(718) 731-2505
19635,MODELL COLLATERAL LOANS LLC, ,PAWNBROKER,1156402,"8413 5 AVENUE, BROOKLYN, NY 11209",8413,5 AVENUE,BROOKLYN,NY,11209,Brooklyn, ,(718) 491-5444
19637,MODELL COLLATERAL LOANS INC, ,PAWNBROKER,1156407,"1736 PITKIN AVENUE, BROOKLYN, NY 11212",1736,PITKIN AVENUE,BROOKLYN,NY,11212,Brooklyn, ,(718) 485-4003
20343,"1517A WATSON PAWNBROKER, INC.", ,PAWNBROKER,1162478,"1517A WATSON AVENUE, BRONX, NY 10472",1517A,WATSON AVENUE,BRONX,NY,10472,Bronx, ,(718) 328-5428
20486,GOLDEN PAWNSHOP CORP, ,PAWNBROKER,1164124,"247 SUYDAM STREET, BROOKLYN, NY 11237",247,SUYDAM STREET,BROOKLYN,NY,11237,Brooklyn, ,(917) 567-5169
20528,DOWNTOWN PAWNSHOP INC., ,PAWNBROKER,1164487,"453 FULTON STREET, BROOKLYN, NY 11201",453,FULTON STREET,BROOKLYN,NY,11201,Brooklyn, ,(718) 834-9054
20636,WESTCHESTER PAWNBROKER INC., ,PAWNBROKER,1166079,"1617 WESTCHESTER AVENUE, BRONX, NY 10472",1617,WESTCHESTER AVENUE,BRONX,NY,10472,Bronx, ,(718) 328-1967
20637,167 PAWNBROKER INC., ,PAWNBROKER,1166080,"196 EAST  167 STREET, BRONX, NY 10456",196,EAST  167 STREET,BRONX,NY,10456,Bronx, ,(718) 537-9127
20730,"AMOROS, JUAN",AMOROS JEWELER'S SHOP,PAWNBROKER,1167500,"1284 ST.NICHOLAS AVENUE, NEW YORK, NY 10033",1284,ST.NICHOLAS AVENUE,NEW YORK,NY,10033,Manhattan, ,(212) 568-4837
21084,"MARTINEZ, PEDRO",JP JEWELRY,PAWNBROKER,1172272,"6 EAST  183 STREET, BRONX, NY 10453",6,EAST  183 STREET,BRONX,NY,10453,Bronx, ,(718) 733-1826
21547,"VILLANUEVA, MYRIAM A",MYRIAM JEWELRY,PAWNBROKER,1179593,"1265A ST NICHOLAS AVENUE, NEW YORK, NY 10033",1265A,ST NICHOLAS AVENUE,NEW YORK,NY,10033,Manhattan, ,(212) 740-6261
21737,"MANHATTAN PAWNBROKER, INC.", ,PAWNBROKER,1181792,"3570 BROADWAY, NEW YORK, NY 10031",3570,BROADWAY,NEW YORK,NY,10031,Manhattan,STORE #7,(999) 999-9999
21894,"VASQUEZ, MARIA P",OGDEN AVENUE PAWN SHOP,PAWNBROKER,1183464,"1004 OGDEN AVENUE, BRONX, NY 10452",1004,OGDEN AVENUE,BRONX,NY,10452,Bronx, ,(718) 991-0342
22511,QUEEN NATASHA INC, ,PAWNBROKER,1188342,"1345 AMSTERDAM AVENUE, NEW YORK, NY 10027",1345,AMSTERDAM AVENUE,NEW YORK,NY,10027,Manhattan, ,(917) 406-3666
22710,"F & D PAWN BROKERS, INC.", ,PAWNBROKER,1189848,"359 WEST   54 STREET, NEW YORK, NY 10019",359,WEST   54 STREET,NEW YORK,NY,10019,Manhattan, ,(845) 216-2578
22975,"SANCHEZ, MARIA",GERARD PAWN BROKERS,PAWNBROKER,1191988,"751 GERARD AVENUE, BRONX, NY 10451",751,GERARD AVENUE,BRONX,NY,10451,Bronx, ,(718) 292-8331
23297,GOLDEN APPLE PAWN SHOP CORP., ,PAWNBROKER,1195374,"403 EAST  138 STREET, BRONX, NY 10454",403,EAST  138 STREET,BRONX,NY,10454,Bronx, ,(718) 665-5323
23299,CHURCH AVENUE PAWN SHOP INC, ,PAWNBROKER,1195394,"2240 CHURCH AVENUE, BROOKLYN, NY 11226",2240,CHURCH AVENUE,BROOKLYN,NY,11226,Brooklyn, ,(718) 469-4033
23350,"CASH DEPOT, INC", ,PAWNBROKER,1195989,"1006 6 AVENUE, NEW YORK, NY 10018",1006,6 AVENUE,NEW YORK,NY,10018,Manhattan, ,(`12) 575-2274
23375,PAWNIT BRUCKNER LTD,PAWNIT,PAWNBROKER,1196305,"1539 BRUCKNER BLVD, BRONX, NY 10472",1539,BRUCKNER BLVD,BRONX,NY,10472,Bronx, ,(718) 861-6100
23402,"JA THIRD AVENUE PAWN SHOP, INC.", ,PAWNBROKER,1196529,"3758 3 AVENUE, BRONX, NY 10456",3758,3 AVENUE,BRONX,NY,10456,Bronx, ,(718) 681-3381
23786,"FORDHAM PAWNBROKER, INC",JEROME PAWNBROKER,PAWNBROKER,1200808,"2436 JEROME AVENUE, BRONX, NY 10468",2436,JEROME AVENUE,BRONX,NY,10468,Bronx, ,(718) 561-7683
24284,"CASH NOW, INC.", ,PAWNBROKER,1205267,"1186 BAY STREET, STATEN ISLAND, NY 10305",1186,BAY STREET,STATEN ISLAND,NY,10305,Staten Island, ,(718) 420-1078
24472,BRISITA JOSE A,180TH ST PAWNSHOP,PAWNBROKER,1207107,"493 E 180TH ST, BRONX, NY 10457-3210",493,E 180TH ST,BRONX,NY,10457-3210,Bronx, ,(718) 561-0005
24560,"PONTE, JAVIER L",NEW YORK JEWELRY,PAWNBROKER,1208299,"58 WEST  183 STREET, BRONX, NY 10453",58,WEST  183 STREET,BRONX,NY,10453,Bronx, ,(718) 364-0808
24863,VICTOR PAWN BROKER INC., ,PAWNBROKER,1211521,"1551 ST NICHOLAS AVENUE, NEW YORK, NY 10040",1551,ST NICHOLAS AVENUE,NEW YORK,NY,10040,Manhattan, ,(212) 795-8763
24942,"ROSAS, VICENTE",VICENTE ROSAS JEWELRY,PAWNBROKER,1212236,"22 EAST  167 STREET, BRONX, NY 10452",22,EAST  167 STREET,BRONX,NY,10452,Bronx, ,(718) 538-1700
25044,"LIBERTY PAWN & FUNDING, INC.", ,PAWNBROKER,1213556,"62 WEST 47 STREET, NEW YORK, NY 10036",62,WEST 47 STREET,NEW YORK,NY,10036,Manhattan,SUITE#304 & 306,(212) 719-2711
25898,"VASQUEZ, MARIA",ARCHER ST PAWN SHOP,PAWNBROKER,1218739,"1871A ARCHER STREET, BRONX, NY 10460",1871A,ARCHER STREET,BRONX,NY,10460,Bronx, ,(718) 684-9997
26057,835 PAWNIT WESTCHESTER LTD, ,PAWNBROKER,1219628,"835 WESTCHESTER AVENUE, BRONX, NY 10455",835,WESTCHESTER AVENUE,BRONX,NY,10455,Bronx, ,(718) 861-6100
26105,"MARTINEZ, PEDRO",M. MART PAWNSHOP,PAWNBROKER,1219908,"275 E 170TH ST, BRONX, NY 10456",275,E 170TH ST,BRONX,NY,10456,Bronx, ,(718) 538-3146
26130,"GEM FINANCIAL SERVICES, INC.",GEM PAWNBROKERS,PAWNBROKER,1220070,"1708 ATLANTIC AVENUE, BROOKLYN, NY 11213",1708,ATLANTIC AVENUE,BROOKLYN,NY,11213,Brooklyn, ,(718) 237-1166
26183,"MUNOZ, EDDIE",E.M. PAWNSHOP,PAWNBROKER,1220442,"380 EAST   10 STREET, NEW YORK, NY 10021",380,EAST   10 STREET,NEW YORK,NY,10021,Manhattan, ,(212) 982-9041
26192,"FAST CASH OF FORDHAM, INC", ,PAWNBROKER,1220536,"334 EAST FORDHAM ROAD, BRONX, NY 10458",334,EAST FORDHAM ROAD,BRONX,NY,10458,Bronx, ,(718) 220-2966
26200,"SERRANO, MARIA",MS JEWELRY,PAWNBROKER,1220601,"679 MORRIS PARK AVENUE, BRONX, NY 10462",679,MORRIS PARK AVENUE,BRONX,NY,10462,Bronx, ,(999) 999-9999
26392,METRO PAWN INC.,PAWN AND SELL PAWNBROKERS,PAWNBROKER,1221783,"222-16 SOUTH CONDUIT AVENUE, SPRINGFIELD GDN, NY 11413",222-16,SOUTH CONDUIT AVENUE,SPRINGFIELD GDN,NY,11413,Queens, ,(718) 949-7296
27165,"COLON, LEONARD",UNIVERSITY JEWELRY EXCHANGE,PAWNBROKER,1228302,"1683 UNIVERSITY AVENUE, BRONX, NY 10453",1683,UNIVERSITY AVENUE,BRONX,NY,10453,Bronx, ,(718) 901-1711
27191,MODELL COLLATERAL LOANS INC, ,PAWNBROKER,1228575,"169 EAST 116TH STREET, NEW YORK, NY 10029",169,EAST 116TH STREET,NEW YORK,NY,10029,Manhattan, ,(212) 400-9001
27568,IZZY'S PAWNSHOP INCORPORATED, ,PAWNBROKER,1231868,"110-42 FLATLANDS AVENUE, BROOKLYN, NY 11207",110-42,FLATLANDS AVENUE,BROOKLYN,NY,11207,Brooklyn, ,(718) 257-5973
27773,"IZAGUIRRE, TOMASA E",JOYERIA ELIZABETH II,PAWNBROKER,1233577,"1495 ST NICHOLAS AVENUE, NEW YORK, NY 10033",1495,ST NICHOLAS AVENUE,NEW YORK,NY,10033,Manhattan, ,(646) 228-5408
28289,CIRCLE PAWNBROKER INC., ,PAWNBROKER,1238345,"118 HUGH J GRANT CIRCLE, BRONX, NY 10472",118,HUGH J GRANT CIRCLE,BRONX,NY,10472,Bronx, ,(646) 515-3887
28568,"GOLD CASH, INC.", ,PAWNBROKER,1240576,"2463 VALENTINE AVENUE, BRONX, NY 10458",2463,VALENTINE AVENUE,BRONX,NY,10458,Bronx,A/K/A 217-219 E 188 STREET,(718) 561-1888
28603,"RODRIGUEZ, JUAN S",SANTIAGO'S JEWELRY,PAWNBROKER,1240983,"2368 UNIVERSITY AVENUE, BRONX, NY 10468",2368,UNIVERSITY AVENUE,BRONX,NY,10468,Bronx, ,(718) 584-4813
28873,E Z PAWN CORP., ,PAWNBROKER,1243031,"2506 FLATBUSH AVENUE, BROOKLYN, NY 11234",2506,FLATBUSH AVENUE,BROOKLYN,NY,11234,Brooklyn, ,(212) 828-0200
28896,"PAULINO, BRAULIO",PAULINO'S PAWN SHOP,PAWNBROKER,1243176,"390 EAST  167 STREET, BRONX, NY 10456",390,EAST  167 STREET,BRONX,NY,10456,Bronx, ,(646) 764-0622
29299,1533 PAWNIT TREMONT CORP, ,PAWNBROKER,1245171,"537A EAST TREMONT AVENUE, BRONX, NY 10457",537A,EAST TREMONT AVENUE,BRONX,NY,10457,Bronx, ,(718) 861-6100
29314,"EIGHTH AVE GOLDEN PAWN SHOP, CORP", ,PAWNBROKER,1245269,"2913 8 AVENUE, NEW YORK, NY 10039",2913,8 AVENUE,NEW YORK,NY,10039,Manhattan, ,(212) 427-0558
29683,A & M COLLECTIBLES CORP.,HOUSTON JEWELRY & COINS,PAWNBROKER,1247217,"309 EAST HOUSTON STREET, NEW YORK, NY 10002",309,EAST HOUSTON STREET,NEW YORK,NY,10002,Manhattan, ,(212) 979-0762
30175,B & J PAWNBROKERS INC, ,PAWNBROKER,1249522,"3125 CHURCH AVENUE, BROOKLYN, NY 11226",3125,CHURCH AVENUE,BROOKLYN,NY,11226,Brooklyn, ,(347) 558-2468
30845,"J.A. BRONX JEWELRY PAWNSHOP, INC.", ,PAWNBROKER,1253721,"2015 ANTHONY AVENUE, BRONX, NY 10457",2015,ANTHONY AVENUE,BRONX,NY,10457,Bronx, ,(718) 901-7701
30851,JOYERIA ELIZABETH I CORP., ,PAWNBROKER,1253775,"551 WEST  207 STREET, NEW YORK, NY 10034",551,WEST  207 STREET,NEW YORK,NY,10034,Manhattan, ,(212) 569-3565
30891,E Z PAWN CORP., ,PAWNBROKER,1254120,"4930 BROADWAY, NEW YORK, NY 10034",4930,BROADWAY,NEW YORK,NY,10034,Manhattan, ,(212) 828-0200
31031,"METROPOLITAN PAWNBROKERS, CORP.", ,PAWNBROKER,1255267,"118-20 ATLANTIC AVENUE, S.RICHMON HILL, NY 11419",118-20,ATLANTIC AVENUE,S.RICHMON HILL,NY,11419,Queens, ,(718) 805-7296
31713,FAST CASH OF APOLLO PAWN SHOP INC., ,PAWNBROKER,1260499,"248 WEST  125 STREET, NEW YORK, NY 10027",248,WEST  125 STREET,NEW YORK,NY,10027,Manhattan, ,(212) 280-0821
31846,JEWELAND JEWELRY INC, ,PAWNBROKER,1261387,"731 ALLERTON AVENUE, BRONX, NY 10467",731,ALLERTON AVENUE,BRONX,NY,10467,Bronx, ,(718) 881-6807
32217,LOMBARD MUTUAL LLC, ,PAWNBROKER,1263247,"36 WEST   47 STREET, NEW YORK, NY 10036",36,WEST   47 STREET,NEW YORK,NY,10036,Manhattan,ROOM 307,(212) 819-0366
32632,"DK JEWELERS, INC.", ,PAWNBROKER,1266486,"3803 BROADWAY, NEW YORK, NY 10032",3803,BROADWAY,NEW YORK,NY,10032,Manhattan, ,(212) 568-9860
32698,"EL BARRIO CARGO EXPRESS, CORP", ,PAWNBROKER,1267223,"2120 3 AVENUE, NEW YORK, NY 10029",2120,3 AVENUE,NEW YORK,NY,10029,Manhattan, ,(212) 860-4460
32702,GENESIS JEWELRY TRADING AND REPAIR SHOP CORP,GENESIS PAWNSHOP,PAWNBROKER,1267247,"2940 FULTON STREET, BROOKLYN, NY 11207",2940,FULTON STREET,BROOKLYN,NY,11207,Brooklyn, ,(718) 827-6255
33004,PUSHKA PAWNSHOP INC, ,PAWNBROKER,1269318,"89-55 164 STREET, JAMAICA, NY 11432",89-55,164 STREET,JAMAICA,NY,11432,Queens, ,(917) 929-6372
33499,S&L PAWN SHOP INC.,PAWN CASH GO,PAWNBROKER,1272523,"768 PORT RICHMOND AVE, STATEN ISLAND, NY 10302",768,PORT RICHMOND AVE,STATEN ISLAND,NY,10302,Staten Island, ,(718) 720-6144
34074,BRONX PAWNBROKER INC., ,PAWNBROKER,1275111,"301 EAST KINGSBRIDGE ROAD, BRONX, NY 10458",301,EAST KINGSBRIDGE ROAD,BRONX,NY,10458,Bronx, ,(718) 220-0200
34156,"5 BOROUGH PAWN , LLC", ,PAWNBROKER,1275361,"93-45A 104 STREET, OZONE PARK, NY 11418",93-45A,104 STREET,OZONE PARK,NY,11418,Queens, ,(718) 847-1864
34538,PAWNIT WALTON CORP, ,PAWNBROKER,1277007,"1405 WALTON AVENUE, BRONX, NY 10452",1405,WALTON AVENUE,BRONX,NY,10452,Bronx, ,(718) 861-6100
34696,"GEM FINANCIAL SERVICES, INC",GEM PAWNBROKERS,PAWNBROKER,1277544,"22-01 31 STREET, ASTORIA, NY 11105",22-01,31 STREET,ASTORIA,NY,11105,Queens, ,(718) 237-1166
35400,EL SOCIO JEWELRY CORP., ,PAWNBROKER,1280542,"69 CLINTON STREET, NEW YORK, NY 10002",69,CLINTON STREET,NEW YORK,NY,10002,Manhattan, ,(212) 982-7027
35401,MODELL COLLATERAL LOANS INC, ,PAWNBROKER,1280543,"36-03 DITMARS BOULEVARD, ASTORIA, NY 11105",36-03,DITMARS BOULEVARD,ASTORIA,NY,11105,Queens, ,(718) 726-2274
35420,CONCOURSE JEWELRY EXCHANGE CORP., ,PAWNBROKER,1280635,"1398 GRAND CONCOURSE, BRONX, NY 10456-1220",1398,GRAND CONCOURSE,BRONX,NY,10456-1220,Bronx, ,(718) 681-7295
35563,EMPIRE PAWNSHOP INC, ,PAWNBROKER,1281455,"799 BROADWAY, BROOKLYN, NY 11206",799,BROADWAY,BROOKLYN,NY,11206,Brooklyn, ,(718) 302-1808
35661,"FRANKIE'S 5 ANGEL'S VARIETY STORE, LLC", ,PAWNBROKER,1282019,"2917 FULTON STREET, BROOKLYN, NY 11207",2917,FULTON STREET,BROOKLYN,NY,11207,Brooklyn, ,(646) 591-6747
35746,BEST DEAL CENTER CORP., ,PAWNBROKER,1282563,"5562A BROADWAY, BRONX, NY 10463",5562A,BROADWAY,BRONX,NY,10463,Bronx, ,(718) 432-2220
35951,E Z PAWN CORP, ,PAWNBROKER,1283846,"5415 5 AVENUE, SUNSET PARK, NY 11220",5415,5 AVENUE,SUNSET PARK,NY,11220,Brooklyn, ,(999) 999-9999
36021,"JAMAICA PAWN, INC.", ,PAWNBROKER,1284431,"90-33A SUTPHIN BOULEVARD, JAMICA, NY 11435",90-33A,SUTPHIN BOULEVARD,JAMICA,NY,11435,Queens, ,(718) 739-6060
36471,MODELL COLLATERAL LOANS INC, ,PAWNBROKER,1287904,"21 WEST   47 STREET, NEW YORK, NY 10036",21,WEST   47 STREET,NEW YORK,NY,10036,Manhattan,2ND FLOOR,(212) 354-4444
36637,"BIG APPLE PAWNBROKERS, LLC", ,PAWNBROKER,1289182,"115-48 SUTPHIN BOULEVARD, JAMAICA, NY 11434",115-48,SUTPHIN BOULEVARD,JAMAICA,NY,11434,Queens, ,(718) 659-4900
37057,RIDGEWOOD EZ PAWN LLC,RIDGEWOOD PAWN,PAWNBROKER,1291892,"54-23A MYRTLE AVENUE, RIDGEWOOD, NY 11385",54-23A,MYRTLE AVENUE,RIDGEWOOD,NY,11385,Queens, ,(718) 497-2274
37060,"BURKE & WHITE PLAINS RD. PAWNBROKERS, LLC", ,PAWNBROKER,1291900,"3201E WHITE PLAINS ROAD, BRONX, NY 10467",3201E,WHITE PLAINS ROAD,BRONX,NY,10467,Bronx, ,(718) 325-2274
37061,82ND & ROOSEVELT PAWNBROKERS & JEWELERS LLC, ,PAWNBROKER,1291902,"82-02 ROOSEVELT AVENUE, QUEENS, NY 11372",82-02,ROOSEVELT AVENUE,QUEENS,NY,11372,Queens, ,(999) 999-9999
37135,N.Y. PAWNBROKERS III INC., ,PAWNBROKER,1292397,"557 WEST  207 STREET, NEW YORK, NY 10034",557,WEST  207 STREET,NEW YORK,NY,10034,Manhattan, ,(718) 665-0252
37450,EMPIRE PAWN & FUNDING INC., ,PAWNBROKER,1294387,"37 WEST   47 STREET, NEW YORK, NY 10036",37,WEST   47 STREET,NEW YORK,NY,10036,Manhattan,BOOTH 701,(212) 730-9350
37835,"GEM FINANCIAL SERVICES, INC",GEM PAWNBROKERS,PAWNBROKER,1298003,"420 EAST  149 STREET, BRONX, NY 10455",420,EAST  149 STREET,BRONX,NY,10455,Bronx, ,(718) 237-1166
37962,"WEST POINT JEWELRY, CORP.", ,PAWNBROKER,1299002,"101 CLINTON STREET, NEW YORK, NY 10002",101,CLINTON STREET,NEW YORK,NY,10002,Manhattan, ,(212) 979-2735
37982,ATLANTIC PAWN SHOP INC, ,PAWNBROKER,1299144,"3028 ATLANTIC AVENUE, BROOKLYN, NY 11208",3028,ATLANTIC AVENUE,BROOKLYN,NY,11208,Brooklyn, ,(718) 348-4100
38331,"GUZMAN, VICTOR MANUEL",V.M.G JEWELRY PAWN SHOP,PAWNBROKER,1301416,"3646 BROADWAY, NEW YORK, NY 10031",3646,BROADWAY,NEW YORK,NY,10031,Manhattan, ,(212) 281-6360
38351,FAST CASH OF APOLLO PAWN SHOP INC., ,PAWNBROKER,1301523,"106 E 125TH ST, NEW YORK, NY 10035",106,E 125TH ST,NEW YORK,NY,10035,Manhattan, ,(212) 280-0821
38416,"ACEVEDO, LISETTE",LISETTE PAWN SHOP,PAWNBROKER,1301941,"2265 CROTONA AVE, BRONX, NY 10457",2265,CROTONA AVE,BRONX,NY,10457,Bronx, ,(917) 225-9055
38570,QUEENS TRIBOROUGH BRIDGE PAWN & JEWELRY LLC, ,PAWNBROKER,1302927,"29-22A HOYT AVENUE SOUTH, ASTORIA, NY 11102",29-22A,HOYT AVENUE SOUTH,ASTORIA,NY,11102,Queens, ,(718) 000-0000
38745,"DJ'S PAWNBROKER, INC.", ,PAWNBROKER,1303800,"43-22 QUEENS BOULEVARD, SUNNYSIDE, NY 11104",43-22,QUEENS BOULEVARD,SUNNYSIDE,NY,11104,Queens, ,(718) 217-5558
38778,"BUDGET PAWN BROKERS, INC", ,PAWNBROKER,1303946,"81-38 BAXTER AVENUE, ELMHURST, NY 11373",81-38,BAXTER AVENUE,ELMHURST,NY,11373,Queens, ,(347) 400-9466
38834,NEW LIBERTY PAWN SHOP INC., ,PAWNBROKER,1304173,"67 W 47TH ST, NEW YORK, NY 10036",67,W 47TH ST,NEW YORK,NY,10036,Manhattan,MEZZANINE,(212) 278-8282
38856,LOANSRUS LTD, ,PAWNBROKER,1304263,"156 EAST  116 STREET, NEW YORK, NY 10029",156,EAST  116 STREET,NEW YORK,NY,10029,Manhattan, ,(212) 996-2675
38917,"GEM FINANCIAL SERVICES, INC.",GEM PAWNBROKERS,PAWNBROKER,1304609,"3513A BROADWAY, NEW YORK, NY 10031",3513A,BROADWAY,NEW YORK,NY,10031,Manhattan, ,(718) 237-1166
39164,"GEM FINANCIAL SERVICES, INC.",GEM PAWNBROKERS,PAWNBROKER,1305684,"1334 ST NICHOLAS AVENUE, NEW YORK, NY 10033",1334,ST NICHOLAS AVENUE,NEW YORK,NY,10033,Manhattan, ,(718) 237-1166
39194,MODELL COLLATERAL LOANS INC, ,PAWNBROKER,1305887,"116-17 JAMAICA AVENUE, RICHMOND HILL, NY 11418",116-17,JAMAICA AVENUE,RICHMOND HILL,NY,11418,Queens, ,(212) 982-1818
39272,HEIRLOOM JEWELRY INC, ,PAWNBROKER,1306217,"952 SOUTHERN BOULEVARD, BRONX, NY 10459",952,SOUTHERN BOULEVARD,BRONX,NY,10459,Bronx, ,(718) 589-8828
39618,MODERN PAWN BROKERS INC., ,PAWNBROKER,1307461,"43 WEST   47 STREET, NEW YORK, NY 10036",43,WEST   47 STREET,NEW YORK,NY,10036,Manhattan,SUITE 201,(212) 302-2008
39858,CASTLE HILL PAWNBROKERS LLC, ,PAWNBROKER,1308376,"1219A CASTLE HILL AVENUE, BRONX, NY 10462",1219A,CASTLE HILL AVENUE,BRONX,NY,10462,Bronx, ,(718) 822-2274
39916,DF JEWELRY INC, ,PAWNBROKER,1308556,"30 DEKALB AVENUE, BROOKLYN, NY 11201",30,DEKALB AVENUE,BROOKLYN,NY,11201,Brooklyn, ,(718) 875-1577
40626,"REYES, JUAN",REYES PAWN SHOP,PAWNBROKER,1311667,"23-27 1 AVENUE, NEW YORK, NY 10035",23-27,1 AVENUE,NEW YORK,NY,10035,Manhattan, ,(212) 987-3485
40666,"5 BOROUGH PAWN, LLC", ,PAWNBROKER,1311898,"1213 MYRTLE AVENUE, BROOKLYN, NY 11221",1213,MYRTLE AVENUE,BROOKLYN,NY,11221,Brooklyn, ,(718) 452-1864
41238,"AB LIBERTY PAWNBROKERS, INC.", ,PAWNBROKER,1315074,"826 FLUSHING AVENUE, BROOKLYN, NY 11206",826,FLUSHING AVENUE,BROOKLYN,NY,11206,Brooklyn, ,(718) 574-7296
41420,BEST DEAL CENTER CORP., ,PAWNBROKER,1316545,"504 WILLIS AVENUE, BRONX, NY 10455",504,WILLIS AVENUE,BRONX,NY,10455,Bronx, ,(718) 401-8888
41644,CIRCA CAPITAL LLC, ,PAWNBROKER,1318258,"415 MADISON AVENUE, NEW YORK, NY 10017",415,MADISON AVENUE,NEW YORK,NY,10017,Manhattan, ,(212) 486-6013
41949,"GOLD LIFE JEWELRY & DISCOUNT, INC.", ,PAWNBROKER,1320675,"50 EAST  161 STREET, BRONX, NY 10451",50,EAST  161 STREET,BRONX,NY,10451,Bronx, ,(718) 292-5702
42388,"JADE PAWNBROKERS, INC.", ,PAWNBROKER,1323635,"132 E FORDHAM RD, BRONX, NY 10458",132,E FORDHAM RD,BRONX,NY,10458,Bronx, ,(347) 726-6253
42706,GOLD STOP PAWN SHOP INC., ,PAWNBROKER,1325523,"1480 AMSTERDAM AVENUE, NEW YORK, NY 10031",1480,AMSTERDAM AVENUE,NEW YORK,NY,10031,Manhattan,STORE# 2,(646) 265-4911
42711,L.A. PAWNSHOP CORP., ,PAWNBROKER,1325544,"155C WEST KINGSBRIDGE ROAD, BRONX, NY 10463",155C,WEST KINGSBRIDGE ROAD,BRONX,NY,10463,Bronx, ,(917) 662-2475
42958,E Z PAWN CORP., ,PAWNBROKER,1326966,"153-05 JAMAICA AVENUE, JAMAICA, NY 11432",153-05,JAMAICA AVENUE,JAMAICA,NY,11432,Queens, ,(212) 828-0200
42972,"FRANKIE'S 5 ANGELS VARIETY STORE, LLC", ,PAWNBROKER,1327053,"380 RALPH AVENUE, BROOKLYN, NY 11233",380,RALPH AVENUE,BROOKLYN,NY,11233,Brooklyn, ,(347) 413-6003
43170,"ICE JEWELRY BUYING SERVICE, LLC.", ,PAWNBROKER,1327964,"98-30 QUEENS BOULEVARD, REGO PARK, NY 11374",98-30,QUEENS BOULEVARD,REGO PARK,NY,11374,Queens, ,(718) 380-0030
43428,"CORNELIO, JOSE",908 ST NICHOLAS PAWN SHOP,PAWNBROKER,1329288,"908 ST NICHOLAS AVENUE, NEW YORK, NY 10032",908,ST NICHOLAS AVENUE,NEW YORK,NY,10032,Manhattan, ,(646) 457-7605
43952,"EAST PAWNBROKER, INC.", ,PAWNBROKER,1333095,"1627 PITKIN AVENUE, BROOKLYN, NY 11212",1627,PITKIN AVENUE,BROOKLYN,NY,11212,Brooklyn, ,(718) 566-6338
44131,PAWNPAL INC, ,PAWNBROKER,1334123,"83-25 ROOSEVELT AVENUE, JACKSON HEIGHTS, NY 11372",83-25,ROOSEVELT AVENUE,JACKSON HEIGHTS,NY,11372,Queens, ,(917) 680-7567
44341,IZZY'S PAWN SHOP II INC, ,PAWNBROKER,1335277,"48 WILLOUGHBY STREET, BROOKLYN, NY 11201",48,WILLOUGHBY STREET,BROOKLYN,NY,11201,Brooklyn, ,(917) 226-7000
44636,YU & M. JEWELRY INC, ,PAWNBROKER,1336726,"739 LYDIG AVENUE, BRONX, NY 10462",739,LYDIG AVENUE,BRONX,NY,10462,Bronx, ,(718) 430-0537
44637,COBRA 2 INC, ,PAWNBROKER,1336727,"672 EAST TREMONT AVENUE, BRONX, NY 10457",672,EAST TREMONT AVENUE,BRONX,NY,10457,Bronx, ,(718) 583-8999
44662,ALDOR JEWELRY CREATIONS INC, ,PAWNBROKER,1336806,"22-39 31 STREET, QUEENS, NY 11105",22-39,31 STREET,QUEENS,NY,11105,Queens, ,(718) 274-0855
44942,PAWN BROKERS OF AMERICA II LTD, ,PAWNBROKER,1338039,"227-19 MERRICK BLVD, LAURELTON, NY 11413",227-19,MERRICK BLVD,LAURELTON,NY,11413,Queens, ,(212) 840-7078
44946,PAWN BROKERS OF AMERICA III LTD., ,PAWNBROKER,1338053,"438 PORT RICHMOND AVENUE, STATEN ISLAND, NY 10302",438,PORT RICHMOND AVENUE,STATEN ISLAND,NY,10302,Staten Island, ,(212) 840-7078
44996,"GEM FINANCIAL SERVICES, INC",GEM PAWNBROKERS,PAWNBROKER,1338261,"1049 WESTCHESTER AVENUE, BRONX, NY 10459",1049,WESTCHESTER AVENUE,BRONX,NY,10459,Bronx, ,(718) 237-1166
45019,"CORNELIO, FRANCINA",106 STREET PAWN SHOP,PAWNBROKER,1338340,"346 EAST  106 STREET, NEW YORK, NY 10029",346,EAST  106 STREET,NEW YORK,NY,10029,Manhattan, ,(999) 999-9999
45152,GAVRIEL'S GOLD MARKET INC, ,PAWNBROKER,1338781,"2056-60 LEXINGTON AVENUE, NEW YORK, NY 10035",2056-60,LEXINGTON AVENUE,NEW YORK,NY,10035,Manhattan, ,(212) 828-0150
45153,ARTHUR'S GOLD MARKET CORP, ,PAWNBROKER,1338784,"2 WEST 125 STREET, NEW YORK, NY 10027",2,WEST 125 STREET,NEW YORK,NY,10027,Manhattan, ,(917) 450-8209
45154,DIAMOND KING 145 INC, ,PAWNBROKER,1338788,"3544 BROADWAY, NEW YORK, NY 10031",3544,BROADWAY,NEW YORK,NY,10031,Manhattan, ,(212) 694-0145
45584,TOP DOLLAR PAWNBROKER INC, ,PAWNBROKER,1340339,"1720 RICHMOND AVENUE, STATEN ISLAND, NY 10314",1720,RICHMOND AVENUE,STATEN ISLAND,NY,10314,Staten Island, ,(718) 370-2200
45716,J.W.G. PAWN SHOP INC,THIRD AVENUE PAWN BROKER,PAWNBROKER,1340699,"1996 3 AVENUE, NEW YORK, NY 10029",1996,3 AVENUE,NEW YORK,NY,10029,Manhattan, ,(212) 369-1257
45975,"PEDRO, RINCON",RINCON JEWELRY II,PAWNBROKER,1341581,"1432B EAST GUN HILL ROAD, BRONX, NY 10469",1432B,EAST GUN HILL ROAD,BRONX,NY,10469,Bronx, ,(917) 482-4311
46045,"DUNLOP, WINSTON O",GUN HILL EXCHANGE,PAWNBROKER,1341786,"275 EAST GUN HILL RD, BRONX, NY 10467",275,EAST GUN HILL RD,BRONX,NY,10467,Bronx, ,(917) 569-2756
46079,AJ'S CASTLE JEWELRY CORP., ,PAWNBROKER,1341870,"163-18 JAMAICA AVE, QUEENS, NY 11432",163-18,JAMAICA AVE,QUEENS,NY,11432,Queens, ,(718) 739-1020
46189,"QUICK CASH OF FLATBUSH & LENOX RD, LLC", ,PAWNBROKER,1342176,"753 FLATBUSH AVENUE, BROOKLYN, NY 11226",753,FLATBUSH AVENUE,BROOKLYN,NY,11226,Brooklyn, ,(718) 287-2274
46309,KHARAG PAWNSHOP INC, ,PAWNBROKER,1342644,"9022 SUTPHIN BOULEVARD, JAMAICA, NY 11435",9022,SUTPHIN BOULEVARD,JAMAICA,NY,11435,Queens, ,(718) 297-1237
46377,COMMUNITY PAWNBROKERS INC., ,PAWNBROKER,1342934,"8215 FLATLANDS AVENUE, BROOKLYN, NY 11236",8215,FLATLANDS AVENUE,BROOKLYN,NY,11236,Brooklyn, ,(718) 444-2200
46378,COMMUNITY PAWNBROKERS INC., ,PAWNBROKER,1342935,"1258 BROADWAY, NEW YORK, NY 11221",1258,BROADWAY,NEW YORK,NY,11221,Brooklyn, ,(718) 444-2200
46399,FEVER OF GOLD INC, ,PAWNBROKER,1343018,"1798 3 AVENUE, NEW YORK, NY 10029",1798,3 AVENUE,NEW YORK,NY,10029,Manhattan, ,(212) 360-7373
46428,PAWN BROKERS OF AMERICA V LTD., ,PAWNBROKER,1343173,"105-09 CROSS BAY BOULEVARD, OZONE PARK, NY 11417",105-09,CROSS BAY BOULEVARD,OZONE PARK,NY,11417,Queens, ,(917) 721-7324
46861,JEWELCAP INC., ,PAWNBROKER,1344827,"608 5 AVENUE, NEW YORK, NY 10020",608,5 AVENUE,NEW YORK,NY,10020,Manhattan,SUITE  605,(212) 459-0333
46968,STUDIO PAWN INC, ,PAWNBROKER,1345240,"2240 BARTOW AVE, BRONX, NY 10475",2240,BARTOW AVE,BRONX,NY,10475,Bronx, ,(516) 967-5519
47056,PRIMOS PAWNBROKER INC, ,PAWNBROKER,1345497,"107-10 ROCKAWAY BOULEVARD, QUEENS, NY 11417",107-10,ROCKAWAY BOULEVARD,QUEENS,NY,11417,Queens, ,(917) 531-5508
47223,DIAMOND LENDER LLC, ,PAWNBROKER,1346203,"576 5TH AVE, NEW YORK, NY 10036",576,5TH AVE,NEW YORK,NY,10036,Manhattan,SUITE 501,(917) 669-0535
47288,LAWN ISLAND CORP, ,PAWNBROKER,1346453,"152 NEW DORP LN, STATEN ISLAND, NY 10306",152,NEW DORP LN,STATEN ISLAND,NY,10306,Staten Island, ,(718) 413-6175
47319,PAWNIT JEROME CORP, ,PAWNBROKER,1346576,"2001A JEROME AVENUE, BRONX, NY 10453",2001A,JEROME AVENUE,BRONX,NY,10453,Bronx, ,(718) 466-6100
47450,EKE GOLD BUYER INC.,FAST CASH PAWNBROKER,PAWNBROKER,1347063,"1805 FOREST AVENUE, STATEN ISLAND, NY 10303",1805,FOREST AVENUE,STATEN ISLAND,NY,10303,Staten Island, ,(718) 556-2274
47774,GLORY PAWNBROKERS INC., ,PAWNBROKER,1348309,"852 EAST TREMONT AVENUE, BRONX, NY 10460",852,EAST TREMONT AVENUE,BRONX,NY,10460,Bronx, ,(718) 991-9898
47992,E Z PAWN CORP, ,PAWNBROKER,1349431,"200 WEST 14TH STREET, NEW YORK, NY 10011",200,WEST 14TH STREET,NEW YORK,NY,10011,Manhattan, ,(212) 242-7296
48285,FRANKIE'S 5 ANGELS VARIETY STORE LLC, ,PAWNBROKER,1351174,"1170 PARK PLACE, BROOKLYN, NY 11236",1170,PARK PLACE,BROOKLYN,NY,11236,Brooklyn, ,() -
48297,J R PAWNSHOP CORP, ,PAWNBROKER,1351330,"943B WESTCHESTER AVENUE, BRONX, NY 10459",943B,WESTCHESTER AVENUE,BRONX,NY,10459,Bronx, ,(347) 998-3035
48379,"ASLAN Z, CORP",NUMERO UNO JEWELRY,PAWNBROKER,1351819,"179 EAST  116 STREET, NEW YORK, NY 10029",179,EAST  116 STREET,NEW YORK,NY,10029,Manhattan, ,(212) 289-6115
48474,"GEM FINANCIAL SERVICES, INC.",GEM PAWNBROKERS,PAWNBROKER,1352471,"1724 PITKIN AVENUE, BROOKLYN, NY 11212",1724,PITKIN AVENUE,BROOKLYN,NY,11212,Brooklyn, ,(712) 237-1166
48485,"EASY 1 CELL & PAWN, CORP.", ,PAWNBROKER,1352526,"511 W 181ST ST, NEW YORK, NY 10033",511,W 181ST ST,NEW YORK,NY,10033,Manhattan, ,(646) 861-7883
48542,"A LIBERTY PAWNBROKERS, INC.", ,PAWNBROKER,1352811,"1810 WEIRFIELD STREET, RIDGEWOOD, NY 11385",1810,WEIRFIELD STREET,RIDGEWOOD,NY,11385,Queens, ,(347) 721-3393
48572,S R SOUNDVIEW AVE PAWNSHOP INC., ,PAWNBROKER,1352941,"805 SOUNDVIEW AVENUE, BRONX, NY 10473",805,SOUNDVIEW AVENUE,BRONX,NY,10473,Bronx, ,(347) 726-5998
48655,LOTTO JEWELRY INC,LJI JEWELRY,PAWNBROKER,1353627,"3021 WESTCHESTER AVENUE, BRONX, NY 10461",3021,WESTCHESTER AVENUE,BRONX,NY,10461,Bronx, ,(914) 512-1618
48681,ROSS PRECIOUS METALS CORP, ,PAWNBROKER,1353798,"47 WEST   47 STREET, NEW YROK, NY 10036",47,WEST   47 STREET,NEW YROK,NY,10036,Manhattan, ,(212) 221-4500
48722,"P&S PAWN, INC.",PAWN AND SELL,PAWNBROKER,1354128,"62-17 NORTHERN BOULEVARD, WOODSIDE, NY 11377",62-17,NORTHERN BOULEVARD,WOODSIDE,NY,11377,Queens, ,(718) 726-7296
48821,LOTTO JEWELRY INC,LJI JEWELRY,PAWNBROKER,1354701,"3645 BRUCKNER BLVD, BRONX, NY 10461",3645,BRUCKNER BLVD,BRONX,NY,10461,Bronx, ,(914) 512-1618
49367,5 BOROUGH PAWN LLC, ,PAWNBROKER,1358761,"2025 MERMAID AVE, BROOKLYN, NY 11224",2025,MERMAID AVE,BROOKLYN,NY,11224,Brooklyn, ,(718) 847-1864
49498,145 STREET JEWELRY INC, ,PAWNBROKER,1359627,"2504 7TH AVE, NEW YORK, NY 10039",2504,7TH AVE,NEW YORK,NY,10039,Manhattan, ,() -
49538,GLOBAL PAWN INC., ,PAWNBROKER,1359925,"37 W 47TH ST, NEW YORK, NY 10036",37,W 47TH ST,NEW YORK,NY,10036,Manhattan,203A,(917) 561-5346
49563,"LEVY, ARIEL",ALEX ENTERPRISE,PAWNBROKER,1360141,"1213 40 AVENUE, LONG ISLAND CTY, NY 11101",1213,40 AVENUE,LONG ISLAND CTY,NY,11101,Queens, ,(718) 482-7605
49745,GOLD DIAMOND SELECTION INC, ,PAWNBROKER,1361216,"885-887 FLATBUSH AVE, BROOKLYN, NY 11226",885-887,FLATBUSH AVE,BROOKLYN,NY,11226,Brooklyn, ,(718) 282-1879
49757,CORONA CASA DE EMPENO INC, ,PAWNBROKER,1361272,"10312A NORTHERN BLVD, CORONA, NY 11368",10312A,NORTHERN BLVD,CORONA,NY,11368,Queens, ,(718) 565-1050
49831,PAWN BROKERS OF AMERICA II LTD, ,PAWNBROKER,1361673,"7906 FLATLAND AVE, BROOKLYN, NY 11236",7906,FLATLAND AVE,BROOKLYN,NY,11236,Brooklyn, ,(718) 444-4700
49934,GENERATION JEWELERS LLC,THE GOLD STANDARD,PAWNBROKER,1362206,"70-54 AUSTIN ST, FOREST HILLS, NY 11375",70-54,AUSTIN ST,FOREST HILLS,NY,11375,Queens, ,(347) 561-7936
50082,ACCESS BROKER CORP, ,PAWNBROKER,1363142,"1317 DEKALB AVE, BROOKLYN, NY 11221",1317,DEKALB AVE,BROOKLYN,NY,11221,Brooklyn, ,(718) 443-9426
50171,"CORNELIO, CYNTHIA",2315 SECOND AVE PAWN SHOP,PAWNBROKER,1363625,"2315 2 AVENUE, NEW YORK, NY 10035",2315,2 AVENUE,NEW YORK,NY,10035,Manhattan, ,(212) 427-0558
50176,APPLE COLLATERALES INC, ,PAWNBROKER,1363665,"27 WEST   47 STREET, NEW YORK, NY 10036",27,WEST   47 STREET,NEW YORK,NY,10036,Manhattan, ,(212) 869-3366
50266,"TORRES, JUAN F",STADIUM GOLD & PAWNSHOP,PAWNBROKER,1364328,"386 E 161TH ST, BRONX, NY 10451",386,E 161TH ST,BRONX,NY,10451,Bronx, ,(718) 450-8910
50316,E Z PAWN CORP, ,PAWNBROKER,1364706,"4521 QUEENS BLVD, SUNNYSIDE, NY 11104",4521,QUEENS BLVD,SUNNYSIDE,NY,11104,Queens, ,(212) 828-0200
50344,DIAMCAPITAL LLC, ,PAWNBROKER,1364863,"535 5TH AVENUE, NEW YORK, NY 10017",535,5TH AVENUE,NEW YORK,NY,10017,Manhattan,18TH FL,(646) 758-0290
50558,PAWN BROKER OF AMERICA II LTD, ,PAWNBROKER,1366472,"980 E 233RD ST, BRONX, NY 10466",980,E 233RD ST,BRONX,NY,10466,Bronx, ,(718) 881-3818
50562,PAWN SHOP OF SUNNYSIDE LTD, ,PAWNBROKER,1366492,"46-19 GREENPOINT AVE, SUNNYSIDE, NY 11104",46-19,GREENPOINT AVE,SUNNYSIDE,NY,11104,Queens, ,(718) 482-7088
50635,COMMUNITY BUY & SELL INC., ,PAWNBROKER,1366976,"829 VAN SICLEN AVENUE, BROOKLYN, NY 11207",829,VAN SICLEN AVENUE,BROOKLYN,NY,11207,Brooklyn, ,(718) 919-2200
50736,"QUEEN NATASHA 111, CORP", ,PAWNBROKER,1367564,"50 EAST  125 STREET, NEW YORK, NY 10035",50,EAST  125 STREET,NEW YORK,NY,10035,Manhattan, ,(917) 406-3666
50738,MDM COLLATERAL LOAN CORP, ,PAWNBROKER,1367579,"1275 78 STREET, BROOKLYN, NY 11228",1275,78 STREET,BROOKLYN,NY,11228,Brooklyn, ,(347) 517-4943
50809,IRAS JEWELRY AND COIN INC,QUICK FIX JEWELERS,PAWNBROKER,1368023,"8707 5TH AVE, BROOKLYN, NY 11209",8707,5TH AVE,BROOKLYN,NY,11209,Brooklyn, ,(718) 872-5757
51032,"EMPIRE DIAMOND PAWNBROKERS, INC", ,PAWNBROKER,1370175,"10 WEST   47 STREET, NEW YORK, NY 10036",10,WEST   47 STREET,NEW YORK,NY,10036,Manhattan,SUITE 303,(212) 944-8400
51095,SEAPOD CAPITAL GROUP LLC,SEAPOD PAWNBROKERS,PAWNBROKER,1370681,"835A PENNSYLVANIA AVENUE, BROOKLYN, NY 11207",835A,PENNSYLVANIA AVENUE,BROOKLYN,NY,11207,Brooklyn, ,(718) 827-2673
51164,SEAPOD CAPITAL GROUP LLC,SEAPOD PAWNBROKERS,PAWNBROKER,1371193,"439 CRESCENT STREET, BROOKLYN, NY 11208",439,CRESCENT STREET,BROOKLYN,NY,11208,Brooklyn, ,(718) 827-2673
51252,PAWN SHOP OF AMERICA INC, ,PAWNBROKER,1371916,"31 WEST 47 STREET, NEW YORK, NY 10036",31,WEST 47 STREET,NEW YORK,NY,10036,Manhattan,2ND FLOOR/SUITE 204,(212) 398-2185
51266,"ACEVEDO, LISETTE",GOLD STAR PAWN SHOP,PAWNBROKER,1372029,"710 CASTLE HILL AVENUE, BRONX, NY 10473",710,CASTLE HILL AVENUE,BRONX,NY,10473,Bronx, ,(917) 225-9055
51486,ROBERT'S JEWELRY INC, ,PAWNBROKER,1373527,"3477 BOSTON RD, BRONX, NY 10469",3477,BOSTON RD,BRONX,NY,10469,Bronx, ,(718) 994-1630
51667,ROBERT'S JEWELRY INC, ,PAWNBROKER,1374591,"605 E 187TH ST, BRONX, NY 10458",605,E 187TH ST,BRONX,NY,10458,Bronx, ,(718) 584-5793
51707,ANCOR GOLD INC.,EMPIREGOLDBUYERS.COM,PAWNBROKER,1374833,"370 LEXINGTON ST, NEW YORK, NY 10017",370,LEXINGTON ST,NEW YORK,NY,10017,Manhattan,SUITE 310,(212) 382-1020
51867,TODD'S PAWN INC., ,PAWNBROKER,1375663,"20 W 47TH ST, NEW YORK, NY 10036",20,W 47TH ST,NEW YORK,NY,10036,Manhattan,SUITE 402,(718) 938-5915
52103,ELEGANT JEWELRY INC, ,PAWNBROKER,1376627,"45-31B BELL BOULEVARD, BAYSIDE, NY 11361",45-31B,BELL BOULEVARD,BAYSIDE,NY,11361,Queens, ,(718) 551-6567
52123,"EMPIRE GOLD & PAWN OF ROSEDALE, INC.", ,PAWNBROKER,1376680,"24120 S CONDUIT AVE, ROSEDALE, NY 11422",24120,S CONDUIT AVE,ROSEDALE,NY,11422,Queens,EAST UNIT,(718) 564-9706
52141,554 TWINS JEWELRY CORP, ,PAWNBROKER,1376756,"554 SOUTHERN BOULEVARD, BRONX, NY 10455",554,SOUTHERN BOULEVARD,BRONX,NY,10455,Bronx, ,(732) 589-9720
52297,GENERATION JEWELERS LLC,THE GOLD STANDARD,PAWNBROKER,1377300,"254-10 HILLSIDE AVENUE, FLORAL PARK, NY 11004",254-10,HILLSIDE AVENUE,FLORAL PARK,NY,11004,Queens, ,(516) 513-0830
52471,PAWNIT NOW CORP, ,PAWNBROKER,1377920,"1205 JEROME AVE, BRONX, NY 10452",1205,JEROME AVE,BRONX,NY,10452,Bronx, ,(718) 861-6100
52546,FRANKIE'S 5 ANGELS VARIETY STORE LLC, ,PAWNBROKER,1378226,"120 MARCUS GARVEY BOULEVARD, BROOKLYN, NY 11206",120,MARCUS GARVEY BOULEVARD,BROOKLYN,NY,11206,Brooklyn, ,(646) 591-1785
52574,PAWN CITY CORP, ,PAWNBROKER,1378301,"2699 FREDERICK DOUGLAS BLVD, NEW YORK, NY 10030",2699,FREDERICK DOUGLAS BLVD,NEW YORK,NY,10030,Manhattan, ,(212) 862-7929
52614,"BROADWAY BUY & PAWN, CORP.", ,PAWNBROKER,1378442,"7610 ROOSEVELT AVE, JACKSON HEIGHTS, NY 11372",7610,ROOSEVELT AVE,JACKSON HEIGHTS,NY,11372,Queens, ,(718) 565-3140
52895,DIAMOND DISTRICT OF BROADWAY INC, ,PAWNBROKER,1379355,"3516 BROADWAY, NEW YORK, NY 10031",3516,BROADWAY,NEW YORK,NY,10031,Manhattan, ,(212) 926-9196
53099,"NETTES, INC",VALENTINO JEWELERS,PAWNBROKER,1380056,"449 KINGS HIGHWAY, BROOKLYN, NY 11223",449,KINGS HIGHWAY,BROOKLYN,NY,11223,Brooklyn, ,(718) 645-2000
53319,PAWN SHOP OF SUNNYSIDE LTD,PAWN SHOP OF RIDGEWOOD,PAWNBROKER,1380798,"58-03 METROPOLITAN AVENUE, RIDGEWOOD, NY 11385",58-03,METROPOLITAN AVENUE,RIDGEWOOD,NY,11385,Queens, ,(718) 366-3090
53358,SEVEN AVE GOLDEN PAWN SHOP INC, ,PAWNBROKER,1380929,"2482 7 AVENUE, NY, NY 10030",2482,7 AVENUE,NY,NY,10030,Manhattan, ,(212) ???-????
53442,USA GC LLC, ,PAWNBROKER,1381274,"1572 PITKIN AVE, BROOKLYN, NY 11212",1572,PITKIN AVE,BROOKLYN,NY,11212,Brooklyn, ,(732) 345-7802
53444,USA GC LLC, ,PAWNBROKER,1381276,"422 KNICKERBOCKER AVE, BROOKLYN, NY 11237",422,KNICKERBOCKER AVE,BROOKLYN,NY,11237,Brooklyn, ,(732) 345-7802
53445,ROYAL GEMS I CORP, ,PAWNBROKER,1381278,"55 W 47TH ST, NEW YORK, NY 10036",55,W 47TH ST,NEW YORK,NY,10036,Manhattan,STE 203,(212) 575-1943
53446,USA GC LLC, ,PAWNBROKER,1381279,"60 GRAHAM AVE, BROOKLYN, NY 11206",60,GRAHAM AVE,BROOKLYN,NY,11206,Brooklyn, ,(732) 345-7802
53451,USA GC LLC, ,PAWNBROKER,1381289,"16221 JAMAICA AVE, JAMAICA, NY 11432",16221,JAMAICA AVE,JAMAICA,NY,11432,Queens, ,(732) 345-7802
53536,"LVL GROUP, INC", ,PAWNBROKER,1381618,"251-57 JERICHO TPKE, BELLEROSE, NY 11426",251-57,JERICHO TPKE,BELLEROSE,NY,11426,Queens, ,(718) 470-1100
53544,SOSO EZ PAWN CORP., ,PAWNBROKER,1381652,"74 W 47TH ST, NEW YORK, NY 10036",74,W 47TH ST,NEW YORK,NY,10036,Manhattan,STE 202A,(917) 774-8235
53545,EZ PAWN BROKERS INC., ,PAWNBROKER,1381655,"58 WEST   47 STREET, NEW YORK, NY 10036",58,WEST   47 STREET,NEW YORK,NY,10036,Manhattan,BOOTH 36,(718) 502-4402
53579,CASH CASH LTD., ,PAWNBROKER,1381759,"43 W 47TH ST, NEW YORK, NY 10036",43,W 47TH ST,NEW YORK,NY,10036,Manhattan,ROOM 303A,(917) 653-0840
53607,D & E REFINERS INC.,BROOKLYN PAWN SHOP,PAWNBROKER,1381854,"567 92 STREET, BROOKLYN, NY 11209",567,92 STREET,BROOKLYN,NY,11209,Brooklyn, ,(718) 754-2274
53608,MANHATTAN BUYERS INC, ,PAWNBROKER,1381859,"576 5TH AVE, NEW YORK, NY 10036",576,5TH AVE,NEW YORK,NY,10036,Manhattan,SUITE 201,(212) 221-9520
53643,CAPITAL PAWN BROKERS INC., ,PAWNBROKER,1382027,"24705 JERICHO TPKE, BELLROSE, NY 11426",24705,JERICHO TPKE,BELLROSE,NY,11426,Queens,1FL,(516) 652-1015
53649,"ESPINAL, FRANCIS J",QUEENSBRIDGE PAWN SHOP,PAWNBROKER,1382060,"38-85 13TH ST, LONG ISLND CITY, NY 11101",38-85,13TH ST,LONG ISLND CITY,NY,11101,Queens, ,(646) 529-0447
53680,HIMROD PAWNSHOP CORP., ,PAWNBROKER,1382172,"1381 MYRTLE AVE, BROOKLYN, NY 11237",1381,MYRTLE AVE,BROOKLYN,NY,11237,Brooklyn, ,(718) 452-0040
53918,"EMILIYA'S DIAMONDS, INC", ,PAWNBROKER,1382864,"2007 CONEY ISLAND AVE, BROOKLYN, NY 11223",2007,CONEY ISLAND AVE,BROOKLYN,NY,11223,Brooklyn, ,(718) 627-4752
54030,"ROSAS, VICENTE",DIAMOND JEWELRY,PAWNBROKER,1383211,"246 EAST  167 STREET, BRONX, NY 10456",246,EAST  167 STREET,BRONX,NY,10456,Bronx, ,(718) 293-4943
54112,AMERICA JEWELRY REPAIR INC., ,PAWNBROKER,1383472,"106 EAST  116 STREET, NEW YORK, NY 10029",106,EAST  116 STREET,NEW YORK,NY,10029,Manhattan, ,(212) 369-9352
54241,"LIBERTY PAWNBROKERS, INC", ,PAWNBROKER,1383887,"96-08 LIBERTY AVE, OZONE PARK, NY 11417",96-08,LIBERTY AVE,OZONE PARK,NY,11417,Queens, ,(718) 845-3700
54283,CBC & HSH CORP.,UNION PAWN STORE,PAWNBROKER,1384053,"36-12 UNION STREET, FLUSHING, NY 11354",36-12,UNION STREET,FLUSHING,NY,11354,Queens,2/FLOOR,(718) 461-8949
54394,"AL & AVI'S UNDERGROUND BARBER SHOP, INC", ,PAWNBROKER,1384432,"2716 CHURCH AVE, BROOKLYN, NY 11226",2716,CHURCH AVE,BROOKLYN,NY,11226,Brooklyn, ,(347) 561-0919
54467,WIN IN PAWN BROKERS INC., ,PAWNBROKER,1384616,"345 E 149TH ST, BRONX, NY 10451",345,E 149TH ST,BRONX,NY,10451,Bronx, ,(718) 292-2788
54702,2712 WESTCHESTER SQUARE PAWNBROKERS LLC, ,PAWNBROKER,1385421,"2712 EAST TREMONT AVENUE, BRONX, NY 10461",2712,EAST TREMONT AVENUE,BRONX,NY,10461,Bronx, ,(718) 892-1954
54769,BURNSIDE GOLD INC, ,PAWNBROKER,1385677,"277 E BURNSIDE AVE, BRONX, NY 10457",277,E BURNSIDE AVE,BRONX,NY,10457,Bronx, ,(347) 269-6170
54839,"JOYNER, HOWARD",GOLDFINGER PRECIOUS METALS EXCHANGE,PAWNBROKER,1385889,"1528 MERMAID AVE, BROOKLYN, NY 11224",1528,MERMAID AVE,BROOKLYN,NY,11224,Brooklyn, ,(718) 266-8252
54980,ELEMENT 79 LLC, ,PAWNBROKER,1386362,"703-5 E 187TH ST, BRONX, NY 10458",703-5,E 187TH ST,BRONX,NY,10458,Bronx, ,(718) 562-2666
55238,FAST CASH OF APOLLO PAWN SHOP INC., ,PAWNBROKER,1387245,"1348A AMSTERDAM AVE, NEW YORK, NY 10027",1348A,AMSTERDAM AVE,NEW YORK,NY,10027,Manhattan, ,(212) 222-1188
55291,AMSTERDAM PAWN SHOP CORP., ,PAWNBROKER,1387478,"1995 AMSTERDAM AVE, NEW YORK, NY 10032",1995,AMSTERDAM AVE,NEW YORK,NY,10032,Manhattan, ,(212) 283-2080
55402,SAVON GOLD INC., ,PAWNBROKER,1387882,"5020 CHURCH AVE, BROOKLYN, NY 11203",5020,CHURCH AVE,BROOKLYN,NY,11203,Brooklyn, ,(718) 342-1800
55542,EL PADRINITO CORP, ,PAWNBROKER,1388620,"3240 3RD AVE, BRONX, NY 10451",3240,3RD AVE,BRONX,NY,10451,Bronx, ,(718) 402-7074
55849,"ANGELES, MARIA",BIG COURTLANDT PAWN  SHOP,PAWNBROKER,1390200,"720 COURTLANDT AVENUE, BRONX, NY 10451",720,COURTLANDT AVENUE,BRONX,NY,10451,Bronx, ,(718) 292-0606
55884,WESTCHESTER GOLDEN PAWN SHOP CORP, ,PAWNBROKER,1390387,"1475 WESTCHESTER AVENUE, BRONX, NY 10472",1475,WESTCHESTER AVENUE,BRONX,NY,10472,Bronx, ,(347) 591-1877
55889,ALLERTON PAWNBROKERS & JEWELERS LLC,QUICK CASH OF RIDGEWOOD II,PAWNBROKER,1390400,"6013 MYRTLE AVE, RIDGEWOOD, NY 11385",6013,MYRTLE AVE,RIDGEWOOD,NY,11385,Queens, ,(646) 772-0471
56025,"GAMA ASSOCIATES, INC",BORINQUEN JEWELRY,PAWNBROKER,1391278,"629 EAST TREMONT AVENUE, BRONX, NY 10457",629,EAST TREMONT AVENUE,BRONX,NY,10457,Bronx, ,(718) 731-3443
56031,"GENERATION JEWLERS, LLC",THE GOLD STANDARD,PAWNBROKER,1391315,"6121 SPRINGFIELD BLVD, OAKLAND GARDENS, NY 11364",6121,SPRINGFIELD BLVD,OAKLAND GARDENS,NY,11364,Queens, ,(718) 224-4220
56095,PAWN BROKERS OF AMERICA II LTD., ,PAWNBROKER,1391701,"170-22A HILLSIDE AVE, QUEENS, NY 11432",170-22A,HILLSIDE AVE,QUEENS,NY,11432,Queens, ,(212) 840-7078
56115,B & H JEWELRY CORP, ,PAWNBROKER,1391825,"304A UTICA AVE, BROOKLYN, NY 11213",304A,UTICA AVE,BROOKLYN,NY,11213,Brooklyn, ,(718) 773-0333
56282,"EMPIRE PAWN BG, LLC", ,PAWNBROKER,1392775,"3548 UNION STREET, FLUSHING, NY 11354",3548,UNION STREET,FLUSHING,NY,11354,Queens,2 FLOOR,(917) 225-8428
56370,SECURE PAWNSHOP INC, ,PAWNBROKER,1393163,"3512 WHITE PLAINS RD, BRONX, NY 10467",3512,WHITE PLAINS RD,BRONX,NY,10467,Bronx, ,(718) 708-7506
56383,R & L MAGIC ENTERPRISES LTD., ,PAWNBROKER,1393207,"1930 CHURCH AVENUE, BROOKLYN, NY 11226",1930,CHURCH AVENUE,BROOKLYN,NY,11226,Brooklyn, ,(718) 282-8883
56454,"GENERATION JEWELERS, LLC",THE GOLD STANDARD,PAWNBROKER,1393594,"3616 30TH AVE, ASTORIA, NY 11103",3616,30TH AVE,ASTORIA,NY,11103,Queens, ,(516) 513-0830
56652,NY ONE BUYERS INC., ,PAWNBROKER,1394770,"31 W 47TH ST, NEW YORK, NY 10036",31,W 47TH ST,NEW YORK,NY,10036,Manhattan,M8/RM 2,(212) 642-4307
56674,BOERUM GOLD LLC, ,PAWNBROKER,1394979,"22 4TH AVE, BROOKLYN, NY 11217",22,4TH AVE,BROOKLYN,NY,11217,Brooklyn, ,(917) 750-9852
56973,PAWN RITE INC, ,PAWNBROKER,1396641,"560 REMSEN AVENUE, BROOKLYN, NY 11236",560,REMSEN AVENUE,BROOKLYN,NY,11236,Brooklyn,STORE  3,(718) 919-2200
57424,E & A JEWELRY INC, ,PAWNBROKER,1398739,"804 BROADWAY, BROOKLYN, NY 11206",804,BROADWAY,BROOKLYN,NY,11206,Brooklyn, ,(718) 943-0358
57483,BUSY B MINI MALL INC., ,PAWNBROKER,1399030,"501 1/2 W 125TH ST, NEW YORK, NY 10027",501 1/2,W 125TH ST,NEW YORK,NY,10027,Manhattan, ,(212) 470-8888
57520,ONE STOP JEWELERS INC, ,PAWNBROKER,1399218,"540 NOSTRAND AVENUE, BROOKLYN, NY 11216",540,NOSTRAND AVENUE,BROOKLYN,NY,11216,Brooklyn, ,(718) 623-9272
57576,AP PAWNSHOP CORP., ,PAWNBROKER,1399443,"534 WILSON AVE, BROOKLYN, NY 11207",534,WILSON AVE,BROOKLYN,NY,11207,Brooklyn, ,(718) 452-2459
57713,"PUSHKA PAWN SHOP, INC", ,PAWNBROKER,1400145,"164-17 JAMAICA AVE, QUEENS, NY 11432",164-17,JAMAICA AVE,QUEENS,NY,11432,Queens, ,(718) 298-5626
57718,MAIN & KISSENA PAWN & JEWELRY INC,QUICK CASH OF KNICKERBOCKER AVE,PAWNBROKER,1400174,"412 KNICKERBOCKER AVE, BROOKLYN, NY 11237",412,KNICKERBOCKER AVE,BROOKLYN,NY,11237,Brooklyn, ,(646) 772-0471
57723,"PANZARELLA, JOSEPH E",CROSS BAY GOLD RUSH,PAWNBROKER,1400184,"10514 CROSSBAY BOULEVARD, OZONE PARK, NY 11417",10514,CROSSBAY BOULEVARD,OZONE PARK,NY,11417,Queens, ,(917) 596-1566
57751,SUBWAY GOLD JEWELRY CORP, ,PAWNBROKER,1400352,"96-22 QUEENS BOULEVARD, REGO PARK, NY 11374",96-22,QUEENS BOULEVARD,REGO PARK,NY,11374,Queens,BL 1D,(718) 869-6198
57770,SHRI DIAMOND INC, ,PAWNBROKER,1400476,"71 WEST   47 STREET, NEW YORK, NY 10036",71,WEST   47 STREET,NEW YORK,NY,10036,Manhattan,SUITE 1600,(212) 840-0650
58031,DE LA ROSA BUY AND SELL INC, ,PAWNBROKER,1401783,"1308 BROADWAY, BROOKLYN, NY 11221",1308,BROADWAY,BROOKLYN,NY,11221,Brooklyn, ,(718) 574-4304
58061,BIEN JEWELRY CORP., ,PAWNBROKER,1401902,"4606 5 AVENUE, BROOKLYN, NY 11220",4606,5 AVENUE,BROOKLYN,NY,11220,Brooklyn, ,(718) 439-7739
58112,DIAMONDS BY SIAG INC., ,PAWNBROKER,1402139,"13 WEST   47 STREET, NEW YORK, NY 10036",13,WEST   47 STREET,NEW YORK,NY,10036,Manhattan, ,(212) 302-2212
58330,EMPIRE GOLD & PAWN DOWNTOWN INC., ,PAWNBROKER,1402917,"135 LAWRENCE ST, BROOKLYN, NY 11201",135,LAWRENCE ST,BROOKLYN,NY,11201,Brooklyn, ,(718) 564-9706
58384,VERSALY JEWELRY INC, ,PAWNBROKER,1403113,"716B GRAND STREET, BROOKLYN, NY 11211",716B,GRAND STREET,BROOKLYN,NY,11211,Brooklyn, ,(718) 486-8800
58405,ALPHA & OMEGA JEWELRY & ANTIQUES MARKET INC, ,PAWNBROKER,1403204,"40-33 162 STREET, FLUSHING, NY 11358",40-33,162 STREET,FLUSHING,NY,11358,Queens, ,(718) 463-4400
58436,DIAMOND JEWELRY I INC, ,PAWNBROKER,1403364,"2356 GRAND CONCOURSE, BRONX, NY 10458",2356,GRAND CONCOURSE,BRONX,NY,10458,Bronx, ,(718) 584-9177
58489,DIAMOND JEWELRY II INC, ,PAWNBROKER,1403541,"200 DYCKMAN STREET, NEW YORK, NY 10040",200,DYCKMAN STREET,NEW YORK,NY,10040,Manhattan, ,(212) 544-0404
58509,"24/7 PAWN SHOP, INC", ,PAWNBROKER,1403638,"1304 BCH CHANNEL DR, FAR ROCKAWAY, NY 11691",1304,BCH CHANNEL DR,FAR ROCKAWAY,NY,11691,Queens, ,(646) 945-9330
58534,EMPIRE GOLD AND PAWN OF C.I. INC, ,PAWNBROKER,1403747,"1614 NEPTUNE AVE, BROOKLYN, NY 11224",1614,NEPTUNE AVE,BROOKLYN,NY,11224,Brooklyn, ,(718) 564-9706
58880,EMPIRE GOLD & PAWN OF SUNSET INC, ,PAWNBROKER,1405319,"4507 5 AVENUE, BROOKLYN, NY 11220",4507,5 AVENUE,BROOKLYN,NY,11220,Brooklyn, ,(718) 564-9706
59040,ZEB PAWN SHOP LLC., ,PAWNBROKER,1406204,"77 GRAHAM AVENUE, BROOKLYN, NY 11206",77,GRAHAM AVENUE,BROOKLYN,NY,11206,Brooklyn, ,(917) 674-8800
59055,"BIG BOY BUYERS, LLC", ,PAWNBROKER,1406282,"3915 103 STREET, CORONA, NY 11368",3915,103 STREET,CORONA,NY,11368,Queens, ,(718) 565-2825
59095,"NBJ, INC.", ,PAWNBROKER,1406575,"359 BROADWAY, BROOKLYN, NY 11211",359,BROADWAY,BROOKLYN,NY,11211,Brooklyn, ,(718) 782-7088
59272,PARADISE JEROME LLC,PARADISE PAWNBROKERS,PAWNBROKER,1407396,"3478 JEROME AVENUE, BRONX, NY 10467",3478,JEROME AVENUE,BRONX,NY,10467,Bronx, ,(718) 295-8900
59670,"COMMUNITY PAWNBROKERS 39TH ST, INC", ,PAWNBROKER,1409375,"442A 39 STREET, BROOKLYN, NY 11232",442A,39 STREET,BROOKLYN,NY,11232,Brooklyn, ,(718) 919-2200
59694,24 HOURS FAST CASH PAWN SHOP INC., ,PAWNBROKER,1409474,"542 WEST  207 STREET, NEW YORK, NY 10034",542,WEST  207 STREET,NEW YORK,NY,10034,Manhattan, ,(212) 470-8888
59784,ROBIN'S JEWELRY INC, ,PAWNBROKER,1409873,"132 DELANCY STREET, NEW YORK, NY 10002",132,DELANCY STREET,NEW YORK,NY,10002,Manhattan, ,(212) 475-1120
59808,MIDAS JEWELERS INC., ,PAWNBROKER,1409988,"252 KNICKERBOCKER AVENUE, BROOKLYN, NY 11237",252,KNICKERBOCKER AVENUE,BROOKLYN,NY,11237,Brooklyn, ,(718) 417-1005
59829,EMMANUEL PAWNSHOP INC., ,PAWNBROKER,1410055,"153 EAST  181 STREET, BRONX, NY 10453",153,EAST  181 STREET,BRONX,NY,10453,Bronx, ,(347) 712-9415
59867,LOTTO JEWELERY INC,LJI JEWELERY,PAWNBROKER,1410280,"715 MORRIS PARK AVE, BRONX, NY 10462",715,MORRIS PARK AVE,BRONX,NY,10462,Bronx, ,(718) 931-1932
59896,N & H RATZON JEWEELRY INC.,MAJESTIC JEWELRY,PAWNBROKER,1410363,"71 GRAHAM AVENUE, BROOKLYN, NY 11206",71,GRAHAM AVENUE,BROOKLYN,NY,11206,Brooklyn, ,(718) 599-3933
60038,"ADRIATIC GOLD BUYERS, INC.", ,PAWNBROKER,1410868,"93-06 LINDEN BLVD, ZONE PARK, NY 11417",93-06,LINDEN BLVD,ZONE PARK,NY,11417,Queens, ,(347) 538-2766
60156,QUICK CASH OF MOUNT VERNON LLC,QUICK CASH OF GRAHAM AVENUE,PAWNBROKER,1411365,"125 GRAHAM AVENUE, BROOKLYN, NY 11206",125,GRAHAM AVENUE,BROOKLYN,NY,11206,Brooklyn, ,(646) 772-0471
60161,GA PAWNSHOP LTD, ,PAWNBROKER,1411380,"685 LENOX AVENUE, NEW YORK, NY 10037",685,LENOX AVENUE,NEW YORK,NY,10037,Manhattan, ,(999) 999-9999
60200,LENNYS PAWN INC., ,PAWNBROKER,1411530,"964 FLATBUSH AVENUE, BROOKLYN, NY 11226",964,FLATBUSH AVENUE,BROOKLYN,NY,11226,Brooklyn, ,(718) 826-9044
60250,"LIZ, YRENE",WEBSTER PAWNBROKER SHOP,PAWNBROKER,1411683,"1883A WEBSTER AVE, BRONX, NY 10457",1883A,WEBSTER AVE,BRONX,NY,10457,Bronx, ,(646) 287-4236
60316,PAWN SHOP AT NIDDLE VILLAGE LTD, ,PAWNBROKER,1412005,"65-19 METROPOLITAN AVENUE, MIDDLE VILLAGE, NY 11379",65-19,METROPOLITAN AVENUE,MIDDLE VILLAGE,NY,11379,Queens, ,(718) ???-????
60432,CROWN PAWN SHOP CORP, ,PAWNBROKER,1412337,"74 GRAHAM AVENUE, BROOKLYN, NY 11206",74,GRAHAM AVENUE,BROOKLYN,NY,11206,Brooklyn, ,(646) 206-9001
60459,"1756 HYLAN BLVD., INC.",BIG BEN,PAWNBROKER,1412414,"1758 HYLAN BOULEVARD, STATEN ISLAND, NY 10305",1758,HYLAN BOULEVARD,STATEN ISLAND,NY,10305,Staten Island, ,(718) 667-8075
60519,BENNY'S VENTURES INC, ,PAWNBROKER,1412581,"8921 165 STREET, JAMAICA, NY 11432",8921,165 STREET,JAMAICA,NY,11432,Queens, ,(718) 526-1717
60560,BORRO L1 INC., ,PAWNBROKER,1412743,"767 3RD AVE, NEW YORK, NY 10017",767,3RD AVE,NEW YORK,NY,10017,Manhattan, ,(646) 861-2048
60772,"ALEX PAWNBROKER, INC.",HILDA RODRIGUEZ,PAWNBROKER,1413532,"617 MELROSE AVE, BRONX, NY 10455",617,MELROSE AVE,BRONX,NY,10455,Bronx, ,(347) 641-4864
60784,TOP PRICE FOR GOLD AND SILVER INC, ,PAWNBROKER,1413559,"73 W 47TH ST, NEW YORK, NY 10036",73,W 47TH ST,NEW YORK,NY,10036,Manhattan, ,(212) 810-9935
60982,PAWNIT 69 LTD, ,PAWNBROKER,1414105,"69 FEATHERBED LANE, BRONX, NY 10452",69,FEATHERBED LANE,BRONX,NY,10452,Bronx,69-71,(718) 294-6100
61015,"FRANKIE'S 5 ANGELS VARIETY STORE, LLC", ,PAWNBROKER,1414210,"9 GRANITE STREET, BROOKLYN, NY 11207",9,GRANITE STREET,BROOKLYN,NY,11207,Brooklyn, ,(646) 457-5178
61020,123 BUY SELL & TRADE INC, ,PAWNBROKER,1414218,"1870 LEXINGTON AVENUE, NEW YORK, NY 10029",1870,LEXINGTON AVENUE,NEW YORK,NY,10029,Manhattan, ,(212) 360-6844
61094,KUKULYNA INC, ,PAWNBROKER,1414437,"2333 HYLAN BOULEVARD, STATEN ISLAND, NY 10306",2333,HYLAN BOULEVARD,STATEN ISLAND,NY,10306,Staten Island, ,(718) 413-6175
61487,CROW HILL JEWELRY INC, ,PAWNBROKER,1415479,"711A FRANKLIN AVE, BROOKLYN, NY 11238",711A,FRANKLIN AVE,BROOKLYN,NY,11238,Brooklyn, ,(718) 919-2200
61488,COMMUNITY PAWNBROKERS 96TH STREET LLC, ,PAWNBROKER,1415480,"9514 4 AVENUE, BROOKLYN, NY 11209",9514,4 AVENUE,BROOKLYN,NY,11209,Brooklyn, ,(718) 919-2200
61578,PAWN BROKERS OF AMERICA 111 LTD, ,PAWNBROKER,1415734,"203 EAST  121 STREET, NEW YORK, NY 10035",203,EAST  121 STREET,NEW YORK,NY,10035,Manhattan,STORE 1,(212) 840-7078
61653,YOUR OPTIMAL SOLUTION INC,OPHIRA,PAWNBROKER,1415923,"10217 METROPOLITAN AVENUE, FOREST HILLS, NY 11375",10217,METROPOLITAN AVENUE,FOREST HILLS,NY,11375,Queens, ,(646) 436-1454
61693,JEWELRY EX CORP, ,PAWNBROKER,1416020,"2015 CONEY ISLAND AVENUE, BROOKLYN, NY 11223",2015,CONEY ISLAND AVENUE,BROOKLYN,NY,11223,Brooklyn, ,(718) 627-1514
61821,"DUNLOP, WINSTON",D R PAWN SHOP,PAWNBROKER,1416393,"1242 OGDEN AVENUE, BRONX, NY 10452",1242,OGDEN AVENUE,BRONX,NY,10452,Bronx, ,(646) 355-7527
61846,ILYA'S GOLD MARKET CORP., ,PAWNBROKER,1416431,"3920 BROADWAY, NEW YORK, NY 10032",3920,BROADWAY,NEW YORK,NY,10032,Manhattan, ,(212) 781-1801
61931,AMINOV SYSTEMS INC,ALBA TRAVEL MULTISERVICE,PAWNBROKER,1416617,"471 EAST  138 ST, BRONX, NY 10454",471,EAST  138 ST,BRONX,NY,10454,Bronx, ,(718) 360-4856
61977,"COLON, LEONARD",UNIVERSITY GOLD-GAMES & ELECTRONIC EXCHANGE,PAWNBROKER,1416732,"1721 DR MARTIN LUTHER KING BLVD, BRONX, NY 10453",1721,DR MARTIN LUTHER KING BLVD,BRONX,NY,10453,Bronx, ,(201) 220-0448
62014,SELL AND PAWN INC, ,PAWNBROKER,1416800,"1426 ROCKAWAY PKWY, BROOKLYN, NY 11236",1426,ROCKAWAY PKWY,BROOKLYN,NY,11236,Brooklyn, ,(347) 425-9162
62031,"SELL AND PAWN, INC", ,PAWNBROKER,1416830,"28-07 STEINWAY STREET, ASTORIA, NY 11103",28-07,STEINWAY STREET,ASTORIA,NY,11103,Queens, ,(602) 451-6111
62036,D & G WIRELESS CELL NATION INC., ,PAWNBROKER,1416838,"7124 AUSTIN ST, QUEENS, NY 11375",7124,AUSTIN ST,QUEENS,NY,11375,Queens, ,(718) 487-4770
62129,EMPIRE GOLD AND PAWN OF GAP INC., ,PAWNBROKER,1417068,"13827 BROOKVILLE BLVD, ROSEDALE, NY 11422",13827,BROOKVILLE BLVD,ROSEDALE,NY,11422,Queens, ,(718) 564-9706
62171,"US GOLD ENTERPRISES, INC",US GOLD & LOAN,PAWNBROKER,1417169,"62 W 47TH ST, NEW YORK, NY 10036",62,W 47TH ST,NEW YORK,NY,10036,Manhattan,SUITE 604,(212) 764-7586
62197,SARA'S JEWELRY BOX LLC, ,PAWNBROKER,1417228,"9114 59TH AVE, ELMHURST, NY 11373",9114,59TH AVE,ELMHURST,NY,11373,Queens, ,(917) 405-2559
62208,PAWN BROKERS OF AMERICA 111 LTD, ,PAWNBROKER,1417252,"338 E GUNHILL RD, BRONX, NY 10467",338,E GUNHILL RD,BRONX,NY,10467,Bronx, ,(718) 655-4555
62211,PAWN SHOP OF MIDDLE VILLAGE LTD,PAWN SHOP OF BUSHWICK,PAWNBROKER,1417257,"1337 BUSHWICK AVE, BROOKLYN, NY 11207",1337,BUSHWICK AVE,BROOKLYN,NY,11207,Brooklyn, ,(999) 999-9999
62270,"K & J PAWNSHOP, INC.", ,PAWNBROKER,1417395,"836 BROADWAY, BROOKLYN, NY 11206",836,BROADWAY,BROOKLYN,NY,11206,Brooklyn,GROUND,(347) 416-9441
62500,PAWNIT 1102 CORP, ,PAWNBROKER,1417947,"1352 WHITE PLAINS RD, BRONX, NY 10462",1352,WHITE PLAINS RD,BRONX,NY,10462,Bronx, ,(718) 861-6100
62592,SELL AND PAWN INC, ,PAWNBROKER,1418150,"10801 ROCKAWAY BLVD, S OZONE PK, NY 11420",10801,ROCKAWAY BLVD,S OZONE PK,NY,11420,Queens, ,(347) 425-9162
62671,GA PAWNSHOP LTD, ,PAWNBROKER,1418330,"2351 2ND AVE, NEW YORK, NY 10035",2351,2ND AVE,NEW YORK,NY,10035,Manhattan,NORTH SIDE STORE FRONT,(212) 281-6577
62776,JM WHOLESALE CORP.,JM GOLD BUYERS,PAWNBROKER,1418542,"3309 FULTON ST, BROOKLYN, NY 11208",3309,FULTON ST,BROOKLYN,NY,11208,Brooklyn, ,(732) 801-7741
62851,"JBOFAMERICA, LLC", ,PAWNBROKER,1418717,"15 W 47TH ST, NEW YORK, NY 10036",15,W 47TH ST,NEW YORK,NY,10036,Manhattan,SUITE 708,(212) 719-2626
62935,"WD 2834, INC", ,PAWNBROKER,1418923,"2834 CONEY ISLAND AVE, BROOKLYN, NY 11235",2834,CONEY ISLAND AVE,BROOKLYN,NY,11235,Brooklyn, ,(718) 769-4040
63050,F&C JEWELRY PAWSHOP CORP, ,PAWNBROKER,1419189,"3801 WHITE PLAINS RD, BRONX, NY 10467",3801,WHITE PLAINS RD,BRONX,NY,10467,Bronx, ,(917) 403-2154
63108,COMMUNITY PAWNBROKERS EMPIRE INC, ,PAWNBROKER,1419291,"253 EMPIRE BLVD, BROOKLYN, NY 11225",253,EMPIRE BLVD,BROOKLYN,NY,11225,Brooklyn, ,(718) 919-2200
63111,AK GOLD TRADE INC, ,PAWNBROKER,1419296,"1727 SHEEPSHEAD BAY RD, BROOKLYN, NY 11235",1727,SHEEPSHEAD BAY RD,BROOKLYN,NY,11235,Brooklyn, ,(718) 769-3450
63121,COMMUNITY PAWNBROKERS UTICA LLC, ,PAWNBROKER,1419318,"1163 UTICA AVE, BROOKLYN, NY 11203",1163,UTICA AVE,BROOKLYN,NY,11203,Brooklyn, ,(718) 919-2200
63195,GOLD 6908 INC., ,PAWNBROKER,1419503,"6908 BAY PKWY, BROOKLYN, NY 11204",6908,BAY PKWY,BROOKLYN,NY,11204,Brooklyn, ,(718) 232-8060
63446,"GENERATION JEWELERS, LLC",THE GOLD STANDARD,PAWNBROKER,1420048,"6370 WOODHAVEN BLVD, REGO PARK, NY 11374",6370,WOODHAVEN BLVD,REGO PARK,NY,11374,Queens, ,(516) 513-0830
63448,GA PAWNSHOP, ,PAWNBROKER,1420054,"156-168 NAGLE AVE, NEW YORK, NY 10040",156-168,NAGLE AVE,NEW YORK,NY,10040,Manhattan, ,(212) 281-6577
63461,LOANSRUS LTD, ,PAWNBROKER,1420091,"575-599 W 181ST ST, NEW YORK, NY 10033",575-599,W 181ST ST,NEW YORK,NY,10033,Manhattan,STORE 9,(212) 410-2140
63611,JACKSON HEIGHTS MARKET INC., ,PAWNBROKER,1420436,"8307 37 AVE, JACKSON HEIGHTS, NY 11372",8307,37 AVE,JACKSON HEIGHTS,NY,11372,Queens, ,(917) 771-5387
63934,"SEAPOD CAPITAL GROUP, LLC",SEAPOD PAWNBROKERS,PAWNBROKER,1421190,"3440C ATLANTIC AVE, BROOKLYN, NY 11208",3440C,ATLANTIC AVE,BROOKLYN,NY,11208,Brooklyn, ,(718) 827-2673
63943,SEAPOD CAPITAL GROUP LLC,SEAPOD PAWNBROKERS,PAWNBROKER,1421203,"9402 80TH ST, OZONE PARK, NY 11416",9402,80TH ST,OZONE PARK,NY,11416,Queens, ,(718) 827-2673
64193,EZ PAWN CORP, ,PAWNBROKER,1421817,"25306 ROCKAWAY BLVD, ROSEDALE, NY 11422",25306,ROCKAWAY BLVD,ROSEDALE,NY,11422,Queens, ,(212) 828-0200
64229,Y2K TECH INC, ,PAWNBROKER,1421891,"111 E 125TH ST, NEW YORK, NY 10035",111,E 125TH ST,NEW YORK,NY,10035,Manhattan, ,(212) 987-8324
64355,"SUNSHINE PAWN BROKER, INC", ,PAWNBROKER,1422194,"26 W 125TH ST, NEW YORK, NY 10027",26,W 125TH ST,NEW YORK,NY,10027,Manhattan, ,(212) 831-2519
64474,AJ JEWELRY BUYERS INC., ,PAWNBROKER,1422475,"62 WEST   47 ST, NEW YORK, NY 10036",62,WEST   47 ST,NEW YORK,NY,10036,Manhattan,SUITE 211,(212) 840-5050
64560,"BRODSKY MATTHEWS JPL, INC.", ,PAWNBROKER,1422680,"2 W 46TH ST, NEW YORK, NY 10036",2,W 46TH ST,NEW YORK,NY,10036,Manhattan,STE 900,(212) 302-3722
64561,"PORAT, GARY", ,PAWNBROKER,1422681,"37 WEST   47 ST, NEW YORK, NY 10036",37,WEST   47 ST,NEW YORK,NY,10036,Manhattan,BTH 4,(212) 302-3330
64633,NYC VIP GOLD INC, ,PAWNBROKER,1422895,"2070 STEINWAY ST, ASTORIA, NY 11105",2070,STEINWAY ST,ASTORIA,NY,11105,Queens, ,(347) 585-6082
64634,FAST PAY DAY INC, ,PAWNBROKER,1422896,"15 W 47TH ST, NEW YORK, NY 10036",15,W 47TH ST,NEW YORK,NY,10036,Manhattan,STE 900,(212) 937-8715
64842,"RUBINOFF, MICHAEL",AAA PAWNBROKER & CO,PAWNBROKER,1423391,"1196 AVE OF THE AMERICAS, NEW YORK, NY 10036",1196,AVE OF THE AMERICAS,NEW YORK,NY,10036,Manhattan,24,(212) 764-3370
64844,KING JEWELRY USA CORP, ,PAWNBROKER,1423395,"3496A JEROME AVE, BRONX, NY 10467",3496A,JEROME AVE,BRONX,NY,10467,Bronx, ,(347) 945-0698
65025,PAWN BROKERS OF AMERICA III LTD, ,PAWNBROKER,1423920,"400 E GUN HILL RD, BRONX, NY 10467",400,E GUN HILL RD,BRONX,NY,10467,Bronx,STORE 2,(212) 840-7078
65081,M.R. KING PAWN SHOP INC, ,PAWNBROKER,1424128,"230 BROOK AVE, BRONX, NY 10454",230,BROOK AVE,BRONX,NY,10454,Bronx, ,(718) 618-7154
65158,ROCKAWAY GOLD BUYERS INC, ,PAWNBROKER,1424410,"10705 ROCKAWAY BLVD, OZONE PARK, NY 11417",10705,ROCKAWAY BLVD,OZONE PARK,NY,11417,Queens, ,(917) 309-1205
65242,"SP GOLD TRADE, INC", ,PAWNBROKER,1424649,"2695 CONEY ISLAND AVE, BROOKLYN, NY 11235",2695,CONEY ISLAND AVE,BROOKLYN,NY,11235,Brooklyn, ,(718) 379-9000
65265,E Z PAWN CORP, ,PAWNBROKER,1424735,"2641 ATLANTIC AVE, BROOKLYN, NY 11207",2641,ATLANTIC AVE,BROOKLYN,NY,11207,Brooklyn, ,(212) 828-0200
65283,"CANTERINO, FRANK",STATEN ISLAND PAWN BROKERS,PAWNBROKER,1424804,"515 MORNINGSTAR RD, STATEN ISLAND, NY 10303",515,MORNINGSTAR RD,STATEN ISLAND,NY,10303,Staten Island, ,(718) 556-5500
65325,"KINGS CLASS PAWN SHOP, INC", ,PAWNBROKER,1424959,"468 PORT RICHMOND AVE, STATEN ISLAND, NY 10302",468,PORT RICHMOND AVE,STATEN ISLAND,NY,10302,Staten Island, ,(347) 743-1050
65364,"BRONX GOLD BUYERS, INC", ,PAWNBROKER,1425083,"710 LYDIG AVE, BRONX, NY 10462",710,LYDIG AVE,BRONX,NY,10462,Bronx, ,(718) 829-2211
65444,OWL FINANCIAL GROUP LLC, ,PAWNBROKER,1425332,"589 5TH AVE, NEW YORK, NY 10017",589,5TH AVE,NEW YORK,NY,10017,Manhattan,STE 909,(212) 315-1250
65723,LIBERGI INC, ,PAWNBROKER,1426363,"1258A FLATBUSH AVE, BROOKLYN, NY 11226",1258A,FLATBUSH AVE,BROOKLYN,NY,11226,Brooklyn, ,(347) 240-3055
65894,NY GOLD BUYER CORP, ,PAWNBROKER,1427186,"172-02 JAMAICA AVE, QUEENS, NY 11432",172-02,JAMAICA AVE,QUEENS,NY,11432,Queens, ,(718) 262-8100
65948,"G'S JEWELRY, INC", ,PAWNBROKER,1427353,"3938 62ND ST, WOODSIDE, NY 11377",3938,62ND ST,WOODSIDE,NY,11377,Queens, ,(347) 282-8925
65956,"ALPHA & OMEGA JEWELRY & ANTIQUES MARKET, INC", ,PAWNBROKER,1427411,"966 SOUTHERN BLVD, BRONX, NY 10459",966,SOUTHERN BLVD,BRONX,NY,10459,Bronx, ,(718) 842-3500
66006,"EASY PAWN OF NY, INCL.", ,PAWNBROKER,1427648,"580 5TH AVE, NEW YORK, NY 10036",580,5TH AVE,NEW YORK,NY,10036,Manhattan,STE 721,(212) 575-4653
66070,UPAWN LTD, ,PAWNBROKER,1427885,"744 UTICA AVE, BROOKLYN, NY 11203",744,UTICA AVE,BROOKLYN,NY,11203,Brooklyn, ,(631) 741-3967
66127,LVL GROUP INC,GOLD  BUYERS CLUB AND JEWELERS,PAWNBROKER,1428147,"9918 METROPOLITAN AVE, FOREST HILLS, NY 11375",9918,METROPOLITAN AVE,FOREST HILLS,NY,11375,Queens, ,(718) 544-2000
66188,MADISON AVE LOAN COMPANY INC., ,PAWNBROKER,1428349,"555 MADISON AVE, NEW YORK, NY 10022",555,MADISON AVE,NEW YORK,NY,10022,Manhattan,31 FL,(718) 793-4088
66221,QUICK CASH OF EAST GUN HILL LLC, ,PAWNBROKER,1428456,"15 E GUN HILL RD, BRONX, NY 10467",15,E GUN HILL RD,BRONX,NY,10467,Bronx, ,(646) 772-0471
66357,LIERGI INC, ,PAWNBROKER,1428965,"415 JERSEY ST, STATEN ISLAND, NY 10301",415,JERSEY ST,STATEN ISLAND,NY,10301,Staten Island, ,(718) 815-7296
66565,GENERATION JEWELERS LLC,THE GOLD STANDARD,PAWNBROKER,1429978,"5607 MYRTLE AVE, RIDGEWOOD, NY 11385",5607,MYRTLE AVE,RIDGEWOOD,NY,11385,Queens, ,(516) 513-0830
66730,MAHA EXPO CORP,BOLLYWOOD WORLD,PAWNBROKER,1430553,"19707 JAMAICA AVE, HOLLIS, NY 11423",19707,JAMAICA AVE,HOLLIS,NY,11423,Queens, ,(718) 217-4292
66741,JAY D'S PAWNBROKERS INC,D'S PRESTAMOS PEPE,PAWNBROKER,1430597,"3449 A BROADWAY, NEW YORK, NY 10031",3449 A,BROADWAY,NEW YORK,NY,10031,Manhattan, ,(212) 281-0005
66772,TC4G INC, ,PAWNBROKER,1430759,"695 ST NICHOLAS AVE, NEW YORK, NY 10030",695,ST NICHOLAS AVE,NEW YORK,NY,10030,Manhattan, ,(516) 216-9377
66778,IDEAL WORLD TRADING CORP, ,PAWNBROKER,1430804,"1810 MCDONALD AVE, BROOKLYN, NY 11223",1810,MCDONALD AVE,BROOKLYN,NY,11223,Brooklyn, ,(347) 576-3838
66809,WALL STREET GOLD BUYERS NYC CORP, ,PAWNBROKER,1430922,"6617 WOODHAVEN BLVD, REGO PARK, NY 11374",6617,WOODHAVEN BLVD,REGO PARK,NY,11374,Queens, ,(917) 848-4737
66829,ULTIMATE JEWELRY INC, ,PAWNBROKER,1431016,"2190 PITKIN AVE, BROOKLYN, NY 11207",2190,PITKIN AVE,BROOKLYN,NY,11207,Brooklyn, ,(646) 773-0175
66960,"GENERATION JEWELERS, LLC",THE GOLD STANDARD,PAWNBROKER,1431604,"5002 5TH AVE, BROOKLYN, NY 11220",5002,5TH AVE,BROOKLYN,NY,11220,Brooklyn,5002-5004 5TH AVE,(516) 513-0830
67068,PYJT TRADING CORP,NOSTRAND BROKERS,PAWNBROKER,1432111,"3670 NOSTRAND AVE, BROOKLYN, NY 11229",3670,NOSTRAND AVE,BROOKLYN,NY,11229,Brooklyn, ,(718) 646-7296
67159,GP PAWN BROKER INC, ,PAWNBROKER,1432552,"28 E MOUNT EDEN AVE, BRONX, NY 10452",28,E MOUNT EDEN AVE,BRONX,NY,10452,Bronx, ,(646) 314-7556
67199,SEAPORT DIAMOND & JEWELRY ENTERPRISE INC, ,PAWNBROKER,1432732,"50 FULTON STREET, NEW YORK, NY 10038",50,FULTON STREET,NEW YORK,NY,10038,Manhattan, ,(347) 553-3062
67222,"A AND E PAWN BROKERS, CORP", ,PAWNBROKER,1432843,"690 ALLERTON AVE, BRONX, NY 10467",690,ALLERTON AVE,BRONX,NY,10467,Bronx,STORE# 6B,(347) 213-5654
67281,P&S PAWN INC,PAWN & SELL PAWNBROKERS,PAWNBROKER,1433155,"20406 HILLSIDE AVE, HOLLIS, NY 11423",20406,HILLSIDE AVE,HOLLIS,NY,11423,Queens, ,(718) 726-7296
67299,WESTCHESTER PAWNBROKER II INC., ,PAWNBROKER,1433223,"1511 WESTCHESTER AVE, BRONX, NY 10472",1511,WESTCHESTER AVE,BRONX,NY,10472,Bronx, ,(718) 328-0730
67594,"YAIR USA, INC", ,PAWNBROKER,1434321,"16712 HILLSIDE AVE, JAMAICA, NY 11432",16712,HILLSIDE AVE,JAMAICA,NY,11432,Queens, ,(917) 682-5552
67978,"MILANO FINE JEWELRY, INC.", ,PAWNBROKER,1435582,"650 MANHATTAN AVE, BROOKLYN, NY 11222",650,MANHATTAN AVE,BROOKLYN,NY,11222,Brooklyn, ,(718) 383-6203
67983,"LLAVERIAS, MELVIN",KEVIN'S PAWN SHOP,PAWNBROKER,1435590,"272 E 198TH ST, BRONX, NY 10458",272,E 198TH ST,BRONX,NY,10458,Bronx, ,(917) 418-5997
67997,"NAMAT, INC.", ,PAWNBROKER,1435655,"36 W 47TH ST, NEW YORK, NY 10036",36,W 47TH ST,NEW YORK,NY,10036,Manhattan,SUITE M100,(718) 658-0569
68065,BL2 INC, ,PAWNBROKER,1435947,"767 3RD AVE, NEW YORK, NY 10017",767,3RD AVE,NEW YORK,NY,10017,Manhattan, ,(202) 736-8094
68081,"KAND ENTERPRISE, CORP.", ,PAWNBROKER,1435978,"6755 WOODHAVEN BLVD, REGO PARK, NY 11374",6755,WOODHAVEN BLVD,REGO PARK,NY,11374,Queens, ,(718) 880-1640
68106,GEM FINANCIAL SERVICES INC,GEM PAWNBROKERS,PAWNBROKER,1436078,"964 FLATBUSH AVE, BROOKLYN, NY 11226",964,FLATBUSH AVE,BROOKLYN,NY,11226,Brooklyn, ,(718) 596-5626
68137,M&J GOLD BUYERS INC,INTERNATIONAL GOLD GROUP,PAWNBROKER,1436161,"210 UTICA AVE, BROOKLYN, NY 11213",210,UTICA AVE,BROOKLYN,NY,11213,Brooklyn, ,(718) 928-6518
68166,MARK'S PAWN SHOP LLC, ,PAWNBROKER,1436233,"75 W 47TH ST, NEW YORK, NY 10036",75,W 47TH ST,NEW YORK,NY,10036,Manhattan,BTH 10,(212) 391-6637
68238,1904 PALM JEWELRY INC, ,PAWNBROKER,1436529,"1904 CHURCH AVE, BROOKLYN, NY 11226",1904,CHURCH AVE,BROOKLYN,NY,11226,Brooklyn, ,(718) 284-7699
68445,MGB MINING INC,PAWNBANC,PAWNBROKER,1437206,"579 FIFTH AVE, NEW YORK, NY 10017",579,FIFTH AVE,NEW YORK,NY,10017,Manhattan,1220,(212) 688-2800
68692,"AMERICAN GOLD REFINERY, INC.", ,PAWNBROKER,1437999,"31 W 47TH ST, NEW YORK, NY 10036",31,W 47TH ST,NEW YORK,NY,10036,Manhattan,STE 504,(212) 391-1012
68714,ROYAL PAWN SHOP INC, ,PAWNBROKER,1438095,"3449A BROADWAY, NEW YORK, NY 10031",3449A,BROADWAY,NEW YORK,NY,10031,Manhattan, ,(212) 398-4386
68783,GOLD CROWN PAWN INC., ,PAWNBROKER,1438363,"37 W 47TH ST, NEW YORK, NY 10036",37,W 47TH ST,NEW YORK,NY,10036,Manhattan,BOOTH 5 & 6,(212) 840-8808
68868,"DZHEMALI, KHUDASHVILI",NEW YORK GOLD AND DIAMOND BUYER,PAWNBROKER,1438609,"45 W 47TH ST, NEW YORK, NY 10036",45,W 47TH ST,NEW YORK,NY,10036,Manhattan,STE 203,(212) 575-5630
68875,TOP GOLD BUYERS INC, ,PAWNBROKER,1438627,"942 E GUN HILL RD, BRONX, NY 10469",942,E GUN HILL RD,BRONX,NY,10469,Bronx, ,(347) 945-3399
68983,RGA JEWELRY PAWNSHOP NEW INC, ,PAWNBROKER,1439014,"1721 LEXINGTON AVE, NEW YORK, NY 10029",1721,LEXINGTON AVE,NEW YORK,NY,10029,Manhattan, ,(212) 348-6106
69362,GEM FINANCIAL SERVICES INC,GEM PAWNBROKERS,PAWNBROKER,1440390,"2199 WESTCHESTER AVE, BRONX, NY 10462",2199,WESTCHESTER AVE,BRONX,NY,10462,Bronx,GROUND FL,(718) 596-5626
69465,"MASHKABOV, RUBIN",RUBIN'S WATCH AND JEWELRY REPAIR,PAWNBROKER,1440865,"15340 HILLSIDE AVE, JAMAICA, NY 11432",15340,HILLSIDE AVE,JAMAICA,NY,11432,Queens, ,(718) 658-4572
69506,24 HOURS FAST CASH PAWN SHOP I INC, ,PAWNBROKER,1441039,"107A DYCKMAN ST, NEW YORK, NY 10040",107A,DYCKMAN ST,NEW YORK,NY,10040,Manhattan, ,(212) 304-2500
69626,FAST CASH 2011 INC, ,PAWNBROKER,1441464,"91 GUYON AVE, STATEN ISLAND, NY 10306",91,GUYON AVE,STATEN ISLAND,NY,10306,Staten Island,1 FL,(718) 668-9200
69780,CASH EMPIRE LLC,CASH EMPIRE,PAWNBROKER,1442122,"2120 NOSTRAND AVE, BROOKLYN, NY 11210",2120,NOSTRAND AVE,BROOKLYN,NY,11210,Brooklyn, ,(718) 576-6900
69934,LENOX GOLD MARKET CORP, ,PAWNBROKER,1442882,"475 LENOX AVE, NEW YORK, NY 10037",475,LENOX AVE,NEW YORK,NY,10037,Manhattan, ,(212) 690-2900
69961,S.Y.U. PAWN OF NY CORP, ,PAWNBROKER,1442981,"55 W 47TH ST, NEW YORK, NY 10036",55,W 47TH ST,NEW YORK,NY,10036,Manhattan,BOOTH 370,(212) 302-7817
69968,PAWN RITE - 2084A LINDEN BLVD LLC, ,PAWNBROKER,1442992,"2084A LINDEN BLVD, BROOKLYN, NY 11207",2084A,LINDEN BLVD,BROOKLYN,NY,11207,Brooklyn, ,(718) 919-2200
69971,PAWN RITE 111-02 SUTPHIN BLVD LLC, ,PAWNBROKER,1442997,"11102 SUTPHIN BLVD, JAMAICA, NY 11435",11102,SUTPHIN BLVD,JAMAICA,NY,11435,Queens, ,(718) 919-2200
69973,PAWN RITE 2209 CHURCH AVE LLC, ,PAWNBROKER,1443006,"2209 CHURCH AVE, BROOKLYN, NY 11226",2209,CHURCH AVE,BROOKLYN,NY,11226,Brooklyn, ,(718) 919-2200
69974,"PAWN RITE - 214-50 JAMAICA AVE., LLC", ,PAWNBROKER,1443010,"21450 JAMAICA AVE, QUEENS VILLAGE, NY 11428",21450,JAMAICA AVE,QUEENS VILLAGE,NY,11428,Queens, ,(718) 919-2200
70124,WALL STREET GOLD BUYERS NYC CORP, ,PAWNBROKER,1443804,"1689 FLATBUSH AVE, BROOKLYN, NY 11210",1689,FLATBUSH AVE,BROOKLYN,NY,11210,Brooklyn, ,(917) 848-4737
70188,EMPIRE GOLD & PAWN OF QV INC, ,PAWNBROKER,1444082,"21874 HEMPSTEAD AVE, QUEENS VILLAGE, NY 11429",21874,HEMPSTEAD AVE,QUEENS VILLAGE,NY,11429,Queens, ,(718) 564-9706
70190,EMPIRE GOLD & PAWN OF QV II INC., ,PAWNBROKER,1444088,"49 HUGH GRANT CIRCLE, BRONX, NY 10462",49,HUGH GRANT CIRCLE,BRONX,NY,10462,Bronx, ,(718) 564-9706
70193,GOLD RAIN INC,PAWN,PAWNBROKER,1444097,"2912 GLENWOOD RD, BROOKLYN, NY 11210",2912,GLENWOOD RD,BROOKLYN,NY,11210,Brooklyn, ,(347) 240-7307
70282,"NAMAT, INC", ,PAWNBROKER,1444475,"71 W 47TH ST, NEW YORK, NY 10036",71,W 47TH ST,NEW YORK,NY,10036,Manhattan,STE 200,(718) 658-0569
70324,AL & AVI'S UNDERGROUND BARBER SHOP INC.,AL'S GOLD BUYERS,PAWNBROKER,1444785,"1308 FLATBUSH AVE, BROOKLYN, NY 11210",1308,FLATBUSH AVE,BROOKLYN,NY,11210,Brooklyn, ,(347) 561-0919
70373,BEST BUY GOLD LLC,GOLD BUYERS,PAWNBROKER,1444958,"2428 RALPH AVE, BROOKLYN, NY 11234",2428,RALPH AVE,BROOKLYN,NY,11234,Brooklyn, ,(718) 513-3799
70390,EXPRESS BUYERS INC, ,PAWNBROKER,1445020,"23 W  47 ST, NEW YORK, NY 10036",23,W  47 ST,NEW YORK,NY,10036,Manhattan,STE  1,(212) ???-????
70411,"AMOROS, MARJORY",GRAND JEWELRY PAWNSHOP,PAWNBROKER,1445106,"2155 GRAND CONCOURSE, BRONX, NY 10453",2155,GRAND CONCOURSE,BRONX,NY,10453,Bronx,STORE# 2,(718) 450-8990
70590,ALLAN'S HOUSEHOLD INC, ,PAWNBROKER,1445838,"281 NEPTUNE AVE, BROOKLYN, NY 11235",281,NEPTUNE AVE,BROOKLYN,NY,11235,Brooklyn, ,(718) 640-0777
70947,"FRANKIE'S 5 ANGELS VARIETY STORE, LLC", ,PAWNBROKER,1447253,"1362 ST JOHNS PLACE, BROOKLYN, NY 11213",1362,ST JOHNS PLACE,BROOKLYN,NY,11213,Brooklyn, ,(347) 413-6003
71056,CIRILO GUZMAN,JOYERIA ELIZABETH III,PAWNBROKER,1447553,"2521 WEBSTER AVE, BRONX, NY 10458",2521,WEBSTER AVE,BRONX,NY,10458,Bronx, ,(718) 584-4101
71165,EMPIRE GOLD & PAWN OF BX INC, ,PAWNBROKER,1447924,"1054 SOUTHERN BLVD, BRONX, NY 10459",1054,SOUTHERN BLVD,BRONX,NY,10459,Bronx, ,(718) 546-9706
71264,EMPIRE GOLD & PAWN OF CH INC, ,PAWNBROKER,1448353,"23416 LINDEN BLVD, CAMBRIA HEIGHTS, NY 11411",23416,LINDEN BLVD,CAMBRIA HEIGHTS,NY,11411,Queens, ,(718) 564-9706
71305,MASTER JEWELRY CORP., ,PAWNBROKER,1448486,"1542 FLATBUSH AVE, BROOKLYN, NY 11210",1542,FLATBUSH AVE,BROOKLYN,NY,11210,Brooklyn, ,(718) 859-9095
71400,LP EXECUTIVE LOANS INC, ,PAWNBROKER,1448820,"10 WEST 47TH ST, NEW YORK, NY 10036",10,WEST 47TH ST,NEW YORK,NY,10036,Manhattan,UNIT 1502,(516) 423-9559
71531,IS IN PAWN CORP, ,PAWNBROKER,1449180,"2619 86TH ST, BROOKLYN, NY 11223",2619,86TH ST,BROOKLYN,NY,11223,Brooklyn, ,(718) 339-4653
71556,GA PAWNSHOP LTD, ,PAWNBROKER,1449254,"3817 DYRE AVE, BRONX, NY 10466",3817,DYRE AVE,BRONX,NY,10466,Bronx,GROUND,(212) 281-6577
71591,SEAPOD CAPITAL GROUP LLC,SEAPOD PAWNBROKERS,PAWNBROKER,1449346,"7907 JAMAICA AVE, WOODHAVEN, NY 11421",7907,JAMAICA AVE,WOODHAVEN,NY,11421,Queens,1ST FL,(718) 827-2673
71890,"YASHAYEV, YAKUB",YAKUB'S SECOND HAND MARKET AND RESTORATION,PAWNBROKER,1450104,"10202 JAMAICA AVE, RICHMOND HILL, NY 11418",10202,JAMAICA AVE,RICHMOND HILL,NY,11418,Queens, ,(646) 344-9963
72268,UTICA PAWN CORP, ,PAWNBROKER,1450969,"407 UTICA AVE, BROOKLYN, NY 11213",407,UTICA AVE,BROOKLYN,NY,11213,Brooklyn,STORE B,(347) 553-3062
72275,"QUICK CASH OF FLATBUSH & LENOX RD 11, LLC", ,PAWNBROKER,1450978,"999A RUTLAND RD, BROOKLYN, NY 11212",999A,RUTLAND RD,BROOKLYN,NY,11212,Brooklyn, ,(718) 287-2274
72407,"SHIMONOV, ROMAN", ,PAWNBROKER,1451293,"74 W 47 ST, NEW YORK, NY 10036",74,W 47 ST,NEW YORK,NY,10036,Manhattan,SUITE 302,(718) 496-9394
72417,G.M. JEWELRY INC, ,PAWNBROKER,1451313,"3112 23 AVE, ASTORIA, NY 11105",3112,23 AVE,ASTORIA,NY,11105,Queens, ,(212) 764-2299
72526,368 PAWNBROKERS INC, ,PAWNBROKER,1451557,"368 E 149TH ST, BRONX, NY 10455",368,E 149TH ST,BRONX,NY,10455,Bronx, ,(347) 297-8975
72591,CITYWIDE PAWN INC., ,PAWNBROKER,1451691,"1316 41 ST, BROOKLYN, NY 11218",1316,41 ST,BROOKLYN,NY,11218,Brooklyn, ,(718) 633-7296
72689,VARIETY PAWN INC, ,PAWNBROKER,1451901,"1825 CONEY ISLAND AVE, BROOKLYN, NY 11230",1825,CONEY ISLAND AVE,BROOKLYN,NY,11230,Brooklyn,2ND FL,(718) 951-6865
72752,LION DIAMONDS GROUP INC,DIAMOND BUYER NYC INC,PAWNBROKER,1452071,"580 5TH AVE, NEW YORK, NY 10036",580,5TH AVE,NEW YORK,NY,10036,Manhattan,MEZZANINI D,(917) 776-6015
72783,EDDI GOLD BUYER LTD, ,PAWNBROKER,1452150,"2351 2ND AVE, NEW YORK, NY 10035",2351,2ND AVE,NEW YORK,NY,10035,Manhattan, ,(212) 360-6934
73041,"BLCE, LLC",NEW YORK LOAN COMPANY,PAWNBROKER,1452658,"50 W 47TH ST, NEW YORK, NY 10036",50,W 47TH ST,NEW YORK,NY,10036,Manhattan,STE 3B,(310) 275-2555
73046,BORIS & SON FORTUNE CORP, ,PAWNBROKER,1452669,"2250 WHITE PLAINS ROAD, BRONX, NY 10467",2250,WHITE PLAINS ROAD,BRONX,NY,10467,Bronx, ,(347) 471-6767
73132,GOLDEN DREAMS JEWELRY LLC,GOLDEN DREAMS,PAWNBROKER,1452864,"183 WEST  231TH ST, BRONX, NY 10463",183,WEST  231TH ST,BRONX,NY,10463,Bronx, ,(718) 796-0787
73237,GURNEY OF QUEENS INC,AJ'S JEWELRY,PAWNBROKER,1453075,"5744 MYRTLE AVE, RIDGEWOOD, NY 11385",5744,MYRTLE AVE,RIDGEWOOD,NY,11385,Queens, ,(718) 628-4499
73243,EXPANDING INC, ,PAWNBROKER,1453093,"575 LEXINGTON AVE, NEW YORK, NY 10022",575,LEXINGTON AVE,NEW YORK,NY,10022,Manhattan,4TH FLOOR,(866) 853-6080
73277,"ALIYEV, AKIF", ,PAWNBROKER,1453154,"229 BRIGHTON BEACH AVE, BROOKLYN, NY 11235",229,BRIGHTON BEACH AVE,BROOKLYN,NY,11235,Brooklyn,1ST FL,(718) 769-3333
73395,K&M WHOLESALE CORP, ,PAWNBROKER,1453391,"2993 FULTON STREET, BROOKLYN, NY 11208",2993,FULTON STREET,BROOKLYN,NY,11208,Brooklyn,REAR STORE,(718) 647-0804
73635,RAINBOW 2 LAUNDRY INC, ,PAWNBROKER,1453905,"1735 PITKIN AVE, BROOKLYN, NY 11212",1735,PITKIN AVE,BROOKLYN,NY,11212,Brooklyn, ,(718) 744-4345
73723,VIRUS LLC, ,PAWNBROKER,1454194,"954 3RD AVE, BROOKLYN, NY 11232",954,3RD AVE,BROOKLYN,NY,11232,Brooklyn,1ST FLOOR,(917) 329-0952
73746,"SUTTONS OF LONDON, INC",SUTTONS & ROBERTSONS,PAWNBROKER,1454255,"875 THIRD AVE, NEW YORK, NY 10022",875,THIRD AVE,NEW YORK,NY,10022,Manhattan,1FL,(610) 640-5923
73814,BOSS MAN JEWELRY SHOP CORP, ,PAWNBROKER,1454469,"2018 CHURCH AVENUE, BROOKLYN, NY 11226",2018,CHURCH AVENUE,BROOKLYN,NY,11226,Brooklyn, ,(718) 287-4140
73861,"PREMIER NY OPERATING CO, LLC",PREMIER PAWN AND JEWELRY,PAWNBROKER,1454603,"937 BROADWAY, BROOKLYN, NY 11211",937,BROADWAY,BROOKLYN,NY,11211,Brooklyn, ,(512) 314-3465
74125,"GOLD HOUSE BUYERS REFINERY, INC.", ,PAWNBROKER,1455265,"29 W 47TH ST, NEW YORK, NY 10036",29,W 47TH ST,NEW YORK,NY,10036,Manhattan,STORE 16-17,(212) 302-2194
74447,V & R MAGIC ENTERPRISE LTD, ,PAWNBROKER,1456025,"918B FLATBUSH AVE, BROOKLYN, NY 11226",918B,FLATBUSH AVE,BROOKLYN,NY,11226,Brooklyn, ,(718) 693-2090
74832,MISS VIOLET HOLDING CORP,FEDERAL PAWN BROKERS,PAWNBROKER,1457919,"64 W 48TH ST, NEW YORK, NY 10036",64,W 48TH ST,NEW YORK,NY,10036,Manhattan,2 FL,(212) 869-8762
74924,"DIAMOND JEWELRY 111, INC", ,PAWNBROKER,1458223,"42 W FORDHAM RD, BX, NY 10468",42,W FORDHAM RD,BX,NY,10468,Bronx, ,(718) 220-5355
74980,KPM GOLD & GEM LLC,PAWN SHOP,PAWNBROKER,1458386,"10509 CROSSBAY BLVD, OZONE PARK, NY 11417",10509,CROSSBAY BLVD,OZONE PARK,NY,11417,Queens, ,(646) 945-9330
74988,KPM GOLD & GEM LLC,PAWN SHOP,PAWNBROKER,1458395,"58-03 METROPOLITAN AVE, RIDGEWOOD, NY 11385",58-03,METROPOLITAN AVE,RIDGEWOOD,NY,11385,Queens, ,(646) 945-9330
74989,KPM GOLD & GEM LLC,PAWN SHOP,PAWNBROKER,1458397,"46-19 GREENPOINT AVE, SUNNYSIDE, NY 11104",46-19,GREENPOINT AVE,SUNNYSIDE,NY,11104,Queens, ,(646) 945-9330
75001,KING GOLD & PAWN INC, ,PAWNBROKER,1458432,"939B PENNSYLVANIA AVE, BROOKLYN, NY 11207",939B,PENNSYLVANIA AVE,BROOKLYN,NY,11207,Brooklyn, ,(646) 202-1612
75070,GOLD PLUS REFINING CORP., ,PAWNBROKER,1458600,"71 W 47TH ST, NEW YORK, NY 10036",71,W 47TH ST,NEW YORK,NY,10036,Manhattan,ST 605,(212) 278-8251
75132,S.J.J. 2 INC.,BIG JAKES PAWNSHOP AND JEWELRY,PAWNBROKER,1458791,"386 E FORDHAM RD, BRONX, NY 10458",386,E FORDHAM RD,BRONX,NY,10458,Bronx, ,(718) 329-3750
75239,"PREMIER NY OPERATING CO, LLC",PREMIER PAWN AND JEWELRY,PAWNBROKER,1459152,"10602 NORTHERN BLVD, CORONA, NY 11368",10602,NORTHERN BLVD,CORONA,NY,11368,Queens, ,(406) 619-1922
75243,"KING GOLD & PAWN 11, INC", ,PAWNBROKER,1459160,"1236 BROADWAY, BROOKLYN, NY 11221",1236,BROADWAY,BROOKLYN,NY,11221,Brooklyn, ,(646) 202-1612
75296,KPM GOLD & GEM LLC,PAWN SHOP,PAWNBROKER,1459387,"3443 BAYCHESTER AVE, BRONX, NY 10469",3443,BAYCHESTER AVE,BRONX,NY,10469,Bronx, ,(646) 945-9330
75300,KPM GOLD & GEM LLC,PAWN SHOP,PAWNBROKER,1459395,"400 GUNHILL RD, BRONX, NY 10467",400,GUNHILL RD,BRONX,NY,10467,Bronx, ,(646) 945-9330
75309,KPM GOLD & GEM LLC, ,PAWNBROKER,1459426,"338 GUNHILL ROAD, BRONX, NY 10467",338,GUNHILL ROAD,BRONX,NY,10467,Bronx, ,(646) 945-9330
